{
  "type": "FeatureCollection",
  "name": "cuarteles",
  "features": [
    {
      "type": "Feature",
      "properties": {
        "id_cuartel": "c00001",
        "nom_cuartel": "1",
        "cultivo": "Uva de mesa",
        "nom_predio": "Parcela 17",
        "propietario": "Luisa Martinez",
        "superficie": "1.04191",
        "asesor": "Guillermo Vasquez",
        "area_indap": "Los Andes",
        "comuna": "San Esteban",
        "provincia": "Los Andes",
        "poligono_cuartel": "c00001",
        "poligono_vuelo": "FIC-L-MARTINEZ-X",
        "fuente": "data/shapefiles/predios_g_vasquez/predios_gv.shp",
        "plot_id": "14",
        "predio_id": "l_martinez"
      },
      "geometry": {
        "type": "Polygon",
        "coordinates": [
          [
            [
              -70.58237310999993,
              -32.751065095999934
            ],
            [
              -70.58251717799999,
              -32.75103163299997
            ],
            [
              -70.58261450599997,
              -32.75127355899997
            ],
            [
              -70.58342317899996,
              -32.75113217899997
            ],
            [
              -70.58302231099998,
              -32.75009703499995
            ],
            [
              -70.58207943199994,
              -32.75030020699995
            ],
            [
              -70.58237310999993,
              -32.751065095999934
            ]
          ]
        ]
      }
    },
    {
      "type": "Feature",
      "properties": {
        "id_cuartel": "c00002",
        "nom_cuartel": "1",
        "cultivo": "Uva de mesa",
        "nom_predio": "Parcela 31",
        "propietario": "Roxana Pani",
        "superficie": "2.3336",
        "asesor": "Guillermo Vasquez",
        "area_indap": "Los Andes",
        "comuna": "San Esteban",
        "provincia": "Los Andes",
        "poligono_cuartel": "c00002",
        "poligono_vuelo": "FIC-R-PANI-X",
        "fuente": "data/shapefiles/predios_g_vasquez/predios_gv.shp",
        "plot_id": "04",
        "predio_id": "r_pani"
      },
      "geometry": {
        "type": "Polygon",
        "coordinates": [
          [
            [
              -70.60084902699998,
              -32.744061519999946
            ],
            [
              -70.60338868599996,
              -32.74440990699998
            ],
            [
              -70.60354915899995,
              -32.744134343999974
            ],
            [
              -70.60348096999996,
              -32.743428791999975
            ],
            [
              -70.60155129099996,
              -32.74320111999998
            ],
            [
              -70.60147209499996,
              -32.743662348999976
            ],
            [
              -70.60092676999994,
              -32.74357649999996
            ],
            [
              -70.60084902699998,
              -32.744061519999946
            ]
          ]
        ]
      }
    },
    {
      "type": "Feature",
      "properties": {
        "id_cuartel": "c00003",
        "nom_cuartel": "2",
        "cultivo": "Uva de mesa",
        "nom_predio": "Parcela 31",
        "propietario": "Roxana Pani",
        "superficie": "2.39677",
        "asesor": "Guillermo Vasquez",
        "area_indap": "Los Andes",
        "comuna": "San Esteban",
        "provincia": "Los Andes",
        "poligono_cuartel": "c00003",
        "poligono_vuelo": "FIC-R-PANI-X",
        "fuente": "data_static/predios_aoi.geojson",
        "plot_id": "04",
        "predio_id": "r_pani"
      },
      "geometry": {
        "type": "Polygon",
        "coordinates": [
          [
            [
              -70.60083955499994,
              -32.744108822999976
            ],
            [
              -70.60071316299997,
              -32.744896592999964
            ],
            [
              -70.60077147499999,
              -32.74491321099998
            ],
            [
              -70.60075493799997,
              -32.74502785899995
            ],
            [
              -70.60325099999994,
              -32.745325038999965
            ],
            [
              -70.60340804099997,
              -32.74447059399995
            ],
            [
              -70.60083955499994,
              -32.744108822999976
            ]
          ]
        ]
      }
    },
    {
      "type": "Feature",
      "properties": {
        "id_cuartel": "c00004",
        "nom_cuartel": "Eugenia Aranda",
        "cultivo": "Uva de mesa",
        "nom_predio": "Parcela 8",
        "propietario": "Domingo Mondaca",
        "superficie": "0.88991",
        "asesor": "Guillermo Vasquez",
        "area_indap": "Los Andes",
        "comuna": "San Esteban",
        "provincia": "Los Andes",
        "poligono_cuartel": "c00004",
        "poligono_vuelo": "FIC-D-MONDACA-X",
        "fuente": "data/shapefiles/predios_g_vasquez/predios_gv.shp",
        "plot_id": "02",
        "predio_id": "d_mondaca"
      },
      "geometry": {
        "type": "Polygon",
        "coordinates": [
          [
            [
              -70.58983863599997,
              -32.74128443899997
            ],
            [
              -70.58920830499994,
              -32.74124836599998
            ],
            [
              -70.58932299699995,
              -32.74259132199995
            ],
            [
              -70.58998383599999,
              -32.74260446099993
            ],
            [
              -70.58983863599997,
              -32.74128443899997
            ]
          ]
        ]
      }
    },
    {
      "type": "Feature",
      "properties": {
        "id_cuartel": "c00005",
        "nom_cuartel": "Blanca Aranda",
        "cultivo": "Uva de mesa",
        "nom_predio": "Parcela 8",
        "propietario": "Domingo Mondaca",
        "superficie": "0.94227",
        "asesor": "Guillermo Vasquez",
        "area_indap": "Los Andes",
        "comuna": "San Esteban",
        "provincia": "Los Andes",
        "poligono_cuartel": "c00005",
        "poligono_vuelo": "FIC-D-MONDACA-X",
        "fuente": "data/shapefiles/predios_g_vasquez/predios_gv.shp",
        "plot_id": "02",
        "predio_id": "d_mondaca"
      },
      "geometry": {
        "type": "Polygon",
        "coordinates": [
          [
            [
              -70.58920737599993,
              -32.74124797999997
            ],
            [
              -70.58852492299997,
              -32.74120667099993
            ],
            [
              -70.58863122399998,
              -32.742523913999946
            ],
            [
              -70.58932216999995,
              -32.74258881299994
            ],
            [
              -70.58920737599993,
              -32.74124797999997
            ]
          ]
        ]
      }
    },
    {
      "type": "Feature",
      "properties": {
        "id_cuartel": "c00006",
        "nom_cuartel": "Domingo Mondaca",
        "cultivo": "Uva de mesa",
        "nom_predio": "Parcela 8",
        "propietario": "Domingo Mondaca",
        "superficie": "0.90916",
        "asesor": "Guillermo Vasquez",
        "area_indap": "Los Andes",
        "comuna": "San Esteban",
        "provincia": "Los Andes",
        "poligono_cuartel": "c00006",
        "poligono_vuelo": "FIC-D-MONDACA-X",
        "fuente": "data_static/predios_aoi.geojson",
        "plot_id": "02",
        "predio_id": "d_mondaca"
      },
      "geometry": {
        "type": "Polygon",
        "coordinates": [
          [
            [
              -70.58852501499996,
              -32.74120781099998
            ],
            [
              -70.58818783499999,
              -32.74118956199993
            ],
            [
              -70.58816499999995,
              -32.74140499999993
            ],
            [
              -70.58809551299998,
              -32.741645534999975
            ],
            [
              -70.58755599599994,
              -32.74189497799995
            ],
            [
              -70.58785306099998,
              -32.74242061399997
            ],
            [
              -70.58863450699994,
              -32.74252460399998
            ],
            [
              -70.58863447499994,
              -32.74252421899996
            ],
            [
              -70.58852639199995,
              -32.741207885999984
            ],
            [
              -70.58852501499996,
              -32.74120781099998
            ]
          ]
        ]
      }
    },
    {
      "type": "Feature",
      "properties": {
        "id_cuartel": "c00007",
        "nom_cuartel": "1",
        "cultivo": "Uva de mesa",
        "nom_predio": "Parcela 14",
        "propietario": "Juan Contreras",
        "superficie": "3.64452",
        "asesor": "Guillermo Vasquez",
        "area_indap": "Los Andes",
        "comuna": "Santa María",
        "provincia": "San Felipe de Aconcagua",
        "poligono_cuartel": "c00007",
        "poligono_vuelo": "FIC-J-CONTRERAS-X",
        "fuente": "data/vectors/kml/FIC-J-CONTRERAS.kmz",
        "plot_id": "07",
        "predio_id": "j_contreras"
      },
      "geometry": {
        "type": "Polygon",
        "coordinates": [
          [
            [
              -70.6166496206671,
              -32.7469398390458
            ],
            [
              -70.6154058418614,
              -32.747244617424
            ],
            [
              -70.6150668753452,
              -32.7486474942051
            ],
            [
              -70.6154237975267,
              -32.7494324139205
            ],
            [
              -70.6167754210152,
              -32.7492454117425
            ],
            [
              -70.616894118577,
              -32.748386672741
            ],
            [
              -70.6166496206671,
              -32.7469398390458
            ]
          ]
        ]
      }
    },
    {
      "type": "Feature",
      "properties": {
        "id_cuartel": "c00008",
        "nom_cuartel": "1",
        "cultivo": "Durazno conservero",
        "nom_predio": "Parcela 24",
        "propietario": "Emilio Sazo",
        "superficie": "1.52224",
        "asesor": "Guillermo Vasquez",
        "area_indap": "Los Andes",
        "comuna": "San Esteban",
        "provincia": "Los Andes",
        "poligono_cuartel": "c00008",
        "poligono_vuelo": "FIC-E-SAZO-X",
        "fuente": "data/shapefiles/predios_g_vasquez/predios_gv.shp",
        "plot_id": "01",
        "predio_id": "e_sazo"
      },
      "geometry": {
        "type": "Polygon",
        "coordinates": [
          [
            [
              -70.59223125899996,
              -32.73473456299996
            ],
            [
              -70.59119564899999,
              -32.73501181299997
            ],
            [
              -70.59134266899997,
              -32.735498191999966
            ],
            [
              -70.59174001399998,
              -32.735387282999966
            ],
            [
              -70.59210630199993,
              -32.73669332099996
            ],
            [
              -70.59278249599998,
              -32.73649414399995
            ],
            [
              -70.59223125899996,
              -32.73473456299996
            ]
          ]
        ]
      }
    },
    {
      "type": "Feature",
      "properties": {
        "id_cuartel": "c00009",
        "nom_cuartel": "2",
        "cultivo": "Uva Red Globe",
        "nom_predio": "Parcela 24",
        "propietario": "Emilio Sazo",
        "superficie": "1.139",
        "asesor": "Guillermo Vasquez",
        "area_indap": "Los Andes",
        "comuna": "San Esteban",
        "provincia": "Los Andes",
        "poligono_cuartel": "c00009",
        "poligono_vuelo": "FIC-E-SAZO-X",
        "fuente": "data/shapefiles/predios_g_vasquez/predios_gv.shp",
        "plot_id": "01",
        "predio_id": "e_sazo"
      },
      "geometry": {
        "type": "Polygon",
        "coordinates": [
          [
            [
              -70.59171257599996,
              -32.73540690999994
            ],
            [
              -70.59091185099999,
              -32.73564149599997
            ],
            [
              -70.59126809299994,
              -32.73691229299993
            ],
            [
              -70.59205754599998,
              -32.73669291899995
            ],
            [
              -70.59171257599996,
              -32.73540690999994
            ]
          ]
        ]
      }
    },
    {
      "type": "Feature",
      "properties": {
        "id_cuartel": "c00010",
        "nom_cuartel": "3",
        "cultivo": "Uva Red Globe",
        "nom_predio": "Parcela 24",
        "propietario": "Emilio Sazo",
        "superficie": "0.78906",
        "asesor": "Guillermo Vasquez",
        "area_indap": "Los Andes",
        "comuna": "San Esteban",
        "provincia": "Los Andes",
        "poligono_cuartel": "c00010",
        "poligono_vuelo": "FIC-E-SAZO-X",
        "fuente": "data/shapefiles/predios_g_vasquez/predios_gv.shp",
        "plot_id": "01",
        "predio_id": "e_sazo"
      },
      "geometry": {
        "type": "Polygon",
        "coordinates": [
          [
            [
              -70.59088639399994,
              -32.73572445299993
            ],
            [
              -70.59035239099995,
              -32.73586708299996
            ],
            [
              -70.59058461799998,
              -32.73711334899997
            ],
            [
              -70.59121787099997,
              -32.73691596499998
            ],
            [
              -70.59088639399994,
              -32.73572445299993
            ]
          ]
        ]
      }
    },
    {
      "type": "Feature",
      "properties": {
        "id_cuartel": "c00011",
        "nom_cuartel": "1",
        "cultivo": "Durazno Nectarin",
        "nom_predio": "NN",
        "propietario": "Oscar Herrera",
        "superficie": "4.33348",
        "asesor": "Guillermo Vasquez",
        "area_indap": "Los Andes",
        "comuna": "Santa María",
        "provincia": "San Felipe de Aconcagua",
        "poligono_cuartel": "c00011",
        "poligono_vuelo": "FIC-O-HERRERA-X",
        "fuente": "data/shapefiles/predios_g_vasquez/predios_gv.shp",
        "plot_id": "24",
        "predio_id": "o_herrera"
      },
      "geometry": {
        "type": "Polygon",
        "coordinates": [
          [
            [
              -70.67425491299997,
              -32.74730938599998
            ],
            [
              -70.67216983499998,
              -32.74787360999994
            ],
            [
              -70.67253395699998,
              -32.74961434299996
            ],
            [
              -70.67497609599997,
              -32.74896155699997
            ],
            [
              -70.67425491299997,
              -32.74730938599998
            ]
          ]
        ]
      }
    },
    {
      "type": "Feature",
      "properties": {
        "id_cuartel": "c00012",
        "nom_cuartel": "1",
        "cultivo": "Palto",
        "nom_predio": "El resguardo",
        "propietario": "Alejandra Brito",
        "superficie": "1.40815",
        "asesor": "Alejandra Brito",
        "area_indap": "Independiente",
        "comuna": "Nogales",
        "provincia": "Quillota",
        "poligono_cuartel": "c00012",
        "poligono_vuelo": "FIC-A-BRITO-X",
        "fuente": "data/shapefiles/predios_a_brito/predio_RPA.geojson",
        "plot_id": "24",
        "predio_id": "a_brito_rpa"
      },
      "geometry": {
        "type": "Polygon",
        "coordinates": [
          [
            [
              -71.21653734299997,
              -32.769070176999946
            ],
            [
              -71.21634805399998,
              -32.769105975999935
            ],
            [
              -71.21626015399994,
              -32.76922951299997
            ],
            [
              -71.21623760899996,
              -32.769328059999964
            ],
            [
              -71.21606604599998,
              -32.76951361399995
            ],
            [
              -71.21592648399997,
              -32.76972941699995
            ],
            [
              -71.21576073999995,
              -32.77024777999998
            ],
            [
              -71.21576533599995,
              -32.77039544499996
            ],
            [
              -71.21585444699997,
              -32.77047135099997
            ],
            [
              -71.21580089899999,
              -32.77055492299996
            ],
            [
              -71.21570652699995,
              -32.77063989399994
            ],
            [
              -71.21567323999994,
              -32.77096966199997
            ],
            [
              -71.21559013399997,
              -32.77133172499998
            ],
            [
              -71.21604965999995,
              -32.77133595699996
            ],
            [
              -71.21619062399998,
              -32.77115883199997
            ],
            [
              -71.21627508899996,
              -32.77110019299994
            ],
            [
              -71.21645497399999,
              -32.77107915199997
            ],
            [
              -71.21641243599998,
              -32.77085136499994
            ],
            [
              -71.21641706099996,
              -32.770487712999966
            ],
            [
              -71.21643388899997,
              -32.76996419599993
            ],
            [
              -71.21657469099995,
              -32.769541742999934
            ],
            [
              -71.21683425099997,
              -32.76919192899993
            ],
            [
              -71.21653734299997,
              -32.769070176999946
            ]
          ]
        ]
      }
    },
    {
      "type": "Feature",
      "properties": {
        "id_cuartel": "c00013",
        "nom_cuartel": "2",
        "cultivo": "Palto",
        "nom_predio": "El resguardo",
        "propietario": "Alejandra Brito",
        "superficie": "0.77379",
        "asesor": "Alejandra Brito",
        "area_indap": "Independiente",
        "comuna": "Nogales",
        "provincia": "Quillota",
        "poligono_cuartel": "c00013",
        "poligono_vuelo": "FIC-A-BRITO-X",
        "fuente": "data/vectors/cuarteles/cuarteles.shp",
        "plot_id": "",
        "predio_id": "a_brito_rpa"
      },
      "geometry": {
        "type": "Polygon",
        "coordinates": [
          [
            [
              -71.21636179299998,
              -32.76905069299994
            ],
            [
              -71.21626643099995,
              -32.76899926699997
            ],
            [
              -71.21590530499998,
              -32.76916816299996
            ],
            [
              -71.21578627699995,
              -32.769205701999965
            ],
            [
              -71.21555277499994,
              -32.76925419899993
            ],
            [
              -71.21519849799995,
              -32.76938948399993
            ],
            [
              -71.21509480099996,
              -32.76943354399998
            ],
            [
              -71.21522295099999,
              -32.76967439799995
            ],
            [
              -71.21538103199998,
              -32.76994672099994
            ],
            [
              -71.21540357399994,
              -32.770062681999946
            ],
            [
              -71.21541052699996,
              -32.77013541899993
            ],
            [
              -71.21540964399998,
              -32.77026159099995
            ],
            [
              -71.21546246599996,
              -32.770331375999945
            ],
            [
              -71.21562912999997,
              -32.77039945799993
            ],
            [
              -71.21568886999995,
              -32.77035108299998
            ],
            [
              -71.21592930499997,
              -32.76968296699994
            ],
            [
              -71.21636179299998,
              -32.76905069299994
            ]
          ]
        ]
      }
    },
    {
      "type": "Feature",
      "properties": {
        "id_cuartel": "c00014",
        "nom_cuartel": "3",
        "cultivo": "Limones",
        "nom_predio": "El resguardo",
        "propietario": "Alejandra Brito",
        "superficie": "4.59707",
        "asesor": "Alejandra Brito",
        "area_indap": "Independiente",
        "comuna": "Nogales",
        "provincia": "Quillota",
        "poligono_cuartel": "c00014",
        "poligono_vuelo": "FIC-A-BRITO-X",
        "fuente": "data/shapefiles/predios_a_brito/predio_RPA.geojson",
        "plot_id": "24",
        "predio_id": "a_brito_rci"
      },
      "geometry": {
        "type": "Polygon",
        "coordinates": [
          [
            [
              -71.20555519299995,
              -32.76216113999993
            ],
            [
              -71.20433979599994,
              -32.76359459599996
            ],
            [
              -71.20441020899995,
              -32.76366934899994
            ],
            [
              -71.20470425099995,
              -32.763799640999935
            ],
            [
              -71.20499266599995,
              -32.76390514299993
            ],
            [
              -71.20536142599997,
              -32.76399079899994
            ],
            [
              -71.20551807399994,
              -32.76404522099995
            ],
            [
              -71.20564168899995,
              -32.764108577999934
            ],
            [
              -71.20582019099999,
              -32.764234252999984
            ],
            [
              -71.20596685199996,
              -32.76429549899996
            ],
            [
              -71.20634067799995,
              -32.76435542199994
            ],
            [
              -71.20684145299998,
              -32.76428375699993
            ],
            [
              -71.20724621799997,
              -32.764100465999945
            ],
            [
              -71.20731523799998,
              -32.76407322899996
            ],
            [
              -71.20739810699996,
              -32.76408533199998
            ],
            [
              -71.20765884299993,
              -32.76417934299997
            ],
            [
              -71.20810296099995,
              -32.76366340399994
            ],
            [
              -71.20555519299995,
              -32.76216113999993
            ]
          ]
        ]
      }
    },
    {
      "type": "Feature",
      "properties": {
        "id_cuartel": "c00015",
        "nom_cuartel": "1",
        "cultivo": "Limones",
        "nom_predio": "Agr. Rivarola",
        "propietario": "Bruno Devoto",
        "superficie": "1.58644",
        "asesor": "Bruno Devoto",
        "area_indap": "Independiente",
        "comuna": "Limache",
        "provincia": "Marga Marga",
        "poligono_cuartel": "c00015",
        "poligono_vuelo": "FIC-B-DEVOTO-X",
        "fuente": "data_static/predios_aoi.geojson",
        "plot_id": "24",
        "predio_id": "b_devoto"
      },
      "geometry": {
        "type": "Polygon",
        "coordinates": [
          [
            [
              -71.25901301399995,
              -32.99451312999997
            ],
            [
              -71.25816562399996,
              -32.994748999999956
            ],
            [
              -71.25764172799995,
              -32.99483731899994
            ],
            [
              -71.25795778499997,
              -32.99547401899997
            ],
            [
              -71.26087688899997,
              -32.99422763399997
            ],
            [
              -71.26066967999998,
              -32.99387101899998
            ],
            [
              -71.25941017799994,
              -32.99440759999993
            ],
            [
              -71.25901301399995,
              -32.99451312999997
            ]
          ]
        ]
      }
    },
    {
      "type": "Feature",
      "properties": {
        "id_cuartel": "c00016",
        "nom_cuartel": "2",
        "cultivo": "Limones",
        "nom_predio": "Agr. Rivarola",
        "propietario": "Bruno Devoto",
        "superficie": "1.75575",
        "asesor": "Bruno Devoto",
        "area_indap": "Independiente",
        "comuna": "Limache",
        "provincia": "Marga Marga",
        "poligono_cuartel": "c00016",
        "poligono_vuelo": "FIC-B-DEVOTO-X",
        "fuente": "data/vectors/cuarteles/cuarteles.shp",
        "plot_id": "",
        "predio_id": "b_devoto"
      },
      "geometry": {
        "type": "Polygon",
        "coordinates": [
          [
            [
              -71.26054977099994,
              -32.99441438399998
            ],
            [
              -71.25815202299998,
              -32.99541813099995
            ],
            [
              -71.25856497899997,
              -32.99625736899998
            ],
            [
              -71.25865052899996,
              -32.99612306999995
            ],
            [
              -71.25876802099998,
              -32.99599691999998
            ],
            [
              -71.25885477199995,
              -32.99591263599996
            ],
            [
              -71.25897429499997,
              -32.995837525999946
            ],
            [
              -71.25961373999996,
              -32.99546838099997
            ],
            [
              -71.25975156199996,
              -32.99535687699995
            ],
            [
              -71.26011362599996,
              -32.99516100599993
            ],
            [
              -71.26027406999998,
              -32.99509854499996
            ],
            [
              -71.26047160999997,
              -32.99506302699996
            ],
            [
              -71.26067649199996,
              -32.99506122599996
            ],
            [
              -71.26058681999996,
              -32.99487412299993
            ],
            [
              -71.26092372799997,
              -32.99472617499998
            ],
            [
              -71.26077125499995,
              -32.99444571299995
            ],
            [
              -71.26060304099997,
              -32.99450940299994
            ],
            [
              -71.26054977099994,
              -32.99441438399998
            ]
          ]
        ]
      }
    },
    {
      "type": "Feature",
      "properties": {
        "id_cuartel": "c00017",
        "nom_cuartel": "3",
        "cultivo": "Limones",
        "nom_predio": "Agr. Rivarola",
        "propietario": "Bruno Devoto",
        "superficie": "0.6489",
        "asesor": "Bruno Devoto",
        "area_indap": "Independiente",
        "comuna": "Limache",
        "provincia": "Marga Marga",
        "poligono_cuartel": "c00017",
        "poligono_vuelo": "FIC-B-DEVOTO-X",
        "fuente": "data/shapefiles/predios_b_devoto/Rivarola-60m.kmz",
        "plot_id": "24",
        "predio_id": "b_devoto"
      },
      "geometry": {
        "type": "Polygon",
        "coordinates": [
          [
            [
              -71.26078133299995,
              -32.995107495999946
            ],
            [
              -71.26060009599996,
              -32.995192101999976
            ],
            [
              -71.26053339099997,
              -32.995085306999954
            ],
            [
              -71.26043775499994,
              -32.99508045299996
            ],
            [
              -71.26027877899998,
              -32.99512443399993
            ],
            [
              -71.26022395399997,
              -32.995127338999964
            ],
            [
              -71.26013772999994,
              -32.99515717299994
            ],
            [
              -71.26009874899995,
              -32.995176853999965
            ],
            [
              -71.26003132799997,
              -32.99522590199996
            ],
            [
              -71.25985572099995,
              -32.995313548999945
            ],
            [
              -71.25973293999994,
              -32.99538390599997
            ],
            [
              -71.25965528199998,
              -32.99545194299998
            ],
            [
              -71.25953910999993,
              -32.99553258599997
            ],
            [
              -71.25938971499994,
              -32.995610805999945
            ],
            [
              -71.25926583799998,
              -32.99567830799998
            ],
            [
              -71.25920394999997,
              -32.99572365599994
            ],
            [
              -71.25893673999997,
              -32.99587110599998
            ],
            [
              -71.25876220599997,
              -32.99602993099995
            ],
            [
              -71.25883691299998,
              -32.99619096799995
            ],
            [
              -71.25918740099996,
              -32.996019743999966
            ],
            [
              -71.25968662799994,
              -32.99577657899994
            ],
            [
              -71.25988109899998,
              -32.99567483799996
            ],
            [
              -71.26010811699996,
              -32.995558692999964
            ],
            [
              -71.26038670999998,
              -32.99543770499997
            ],
            [
              -71.26054768999995,
              -32.99538544899997
            ],
            [
              -71.26086738599997,
              -32.995267282999976
            ],
            [
              -71.26078133299995,
              -32.995107495999946
            ]
          ]
        ]
      }
    },
    {
      "type": "Feature",
      "properties": {
        "id_cuartel": "c00018",
        "nom_cuartel": "1",
        "cultivo": "Nogales",
        "nom_predio": "NN",
        "propietario": "Claudio Alvarado",
        "superficie": "1.69976",
        "asesor": "Ramiro Martinez",
        "area_indap": "Los Andes",
        "comuna": "San Esteban",
        "provincia": "Los Andes",
        "poligono_cuartel": "c00018",
        "poligono_vuelo": "FIC-C-ALVARADO-X",
        "fuente": "data/vectors/kml/FIC-C-ALVARADO.kmz",
        "plot_id": "24",
        "predio_id": "c_alvarado"
      },
      "geometry": {
        "type": "Polygon",
        "coordinates": [
          [
            [
              -70.54289456499998,
              -32.82804972699995
            ],
            [
              -70.54309775099995,
              -32.82870745099996
            ],
            [
              -70.54317717799995,
              -32.82870394299994
            ],
            [
              -70.54323972799995,
              -32.82872308499998
            ],
            [
              -70.54325023499996,
              -32.828759856999966
            ],
            [
              -70.54339956999996,
              -32.82874539299996
            ],
            [
              -70.54478440899999,
              -32.828283726999985
            ],
            [
              -70.54492752899995,
              -32.827838664999945
            ],
            [
              -70.54504090699999,
              -32.827330307999944
            ],
            [
              -70.54289456499998,
              -32.82804972699995
            ]
          ]
        ]
      }
    },
    {
      "type": "Feature",
      "properties": {
        "id_cuartel": "c00019",
        "nom_cuartel": "2",
        "cultivo": "Nogales",
        "nom_predio": "NN",
        "propietario": "Claudio Alvarado",
        "superficie": "1.01933",
        "asesor": "Ramiro Martinez",
        "area_indap": "Los Andes",
        "comuna": "San Esteban",
        "provincia": "Los Andes",
        "poligono_cuartel": "c00019",
        "poligono_vuelo": "FIC-C-ALVARADO-X",
        "fuente": "data/vectors/cuarteles/cuarteles.shp",
        "plot_id": "",
        "predio_id": "c_alvarado"
      },
      "geometry": {
        "type": "Polygon",
        "coordinates": [
          [
            [
              -70.54286313899996,
              -32.82814584199997
            ],
            [
              -70.54163594899995,
              -32.82854252799996
            ],
            [
              -70.54197235699996,
              -32.829265617999965
            ],
            [
              -70.54306049099995,
              -32.82890692899997
            ],
            [
              -70.54308198699994,
              -32.82886416499997
            ],
            [
              -70.54308034999997,
              -32.82877086499997
            ],
            [
              -70.54286313899996,
              -32.82814584199997
            ]
          ]
        ]
      }
    },
    {
      "type": "Feature",
      "properties": {
        "id_cuartel": "c00020",
        "nom_cuartel": "2",
        "cultivo": "Uva de mesa",
        "nom_predio": "Hacienda Rinconada",
        "propietario": "Ricardo Porfiri",
        "superficie": "4.18585",
        "asesor": "Ricardo Porfiri",
        "area_indap": "Independiente",
        "comuna": "Rinconada",
        "provincia": "Los Andes",
        "poligono_cuartel": "c00020",
        "poligono_vuelo": "FIC-B-PORFIRI-X",
        "fuente": "data/shapefiles/predios_r_porfiri/FIC-R-PORFIRI.kmz",
        "plot_id": "24",
        "predio_id": "r_porfiri"
      },
      "geometry": {
        "type": "Polygon",
        "coordinates": [
          [
            [
              -70.71816086299998,
              -32.81827384899998
            ],
            [
              -70.71628631399994,
              -32.81799467999997
            ],
            [
              -70.71522540499996,
              -32.81971087499994
            ],
            [
              -70.71763846499994,
              -32.82007933699998
            ],
            [
              -70.71816086299998,
              -32.81827384899998
            ]
          ]
        ]
      }
    },
    {
      "type": "Feature",
      "properties": {
        "id_cuartel": "c00021",
        "nom_cuartel": "3",
        "cultivo": "Uva de mesa",
        "nom_predio": "Hacienda Rinconada",
        "propietario": "Ricardo Porfiri",
        "superficie": "2.94514",
        "asesor": "Ricardo Porfiri",
        "area_indap": "Independiente",
        "comuna": "Rinconada",
        "provincia": "Los Andes",
        "poligono_cuartel": "c00021",
        "poligono_vuelo": "FIC-B-PORFIRI-X",
        "fuente": "data/shapefiles/predios_r_porfiri/FIC-R-PORFIRI.kmz",
        "plot_id": "24",
        "predio_id": "r_porfiri"
      },
      "geometry": {
        "type": "Polygon",
        "coordinates": [
          [
            [
              -70.71632668199999,
              -32.81992340099998
            ],
            [
              -70.71524821999998,
              -32.819776812999976
            ],
            [
              -70.71449688099995,
              -32.82243370899994
            ],
            [
              -70.71478850499994,
              -32.822405336999964
            ],
            [
              -70.71523797799995,
              -32.82235350199994
            ],
            [
              -70.71563780599996,
              -32.822362478999935
            ],
            [
              -70.71632668199999,
              -32.81992340099998
            ]
          ]
        ]
      }
    },
    {
      "type": "Feature",
      "properties": {
        "id_cuartel": "c00022",
        "nom_cuartel": "4",
        "cultivo": "Uva de mesa",
        "nom_predio": "Hacienda Rinconada",
        "propietario": "Ricardo Porfiri",
        "superficie": "3.02679",
        "asesor": "Ricardo Porfiri",
        "area_indap": "Independiente",
        "comuna": "Rinconada",
        "provincia": "Los Andes",
        "poligono_cuartel": "c00022",
        "poligono_vuelo": "FIC-B-PORFIRI-X",
        "fuente": "data/shapefiles/predios_r_porfiri/FIC-R-PORFIRI.kmz",
        "plot_id": "24",
        "predio_id": "r_porfiri"
      },
      "geometry": {
        "type": "Polygon",
        "coordinates": [
          [
            [
              -70.71762600399995,
              -32.82011734699995
            ],
            [
              -70.71636658699998,
              -32.81993430499995
            ],
            [
              -70.71566335999995,
              -32.82236330899997
            ],
            [
              -70.71666384099996,
              -32.822385063999945
            ],
            [
              -70.71728147999994,
              -32.821295790999955
            ],
            [
              -70.71762600399995,
              -32.82011734699995
            ]
          ]
        ]
      }
    },
    {
      "type": "Feature",
      "properties": {
        "id_cuartel": "c00023",
        "nom_cuartel": "5",
        "cultivo": "Uva de mesa",
        "nom_predio": "Hacienda Rinconada",
        "propietario": "Ricardo Porfiri",
        "superficie": "1.19787",
        "asesor": "Ricardo Porfiri",
        "area_indap": "Independiente",
        "comuna": "Rinconada",
        "provincia": "Los Andes",
        "poligono_cuartel": "c00023",
        "poligono_vuelo": "FIC-B-PORFIRI-X",
        "fuente": "data/shapefiles/predios_r_porfiri/FIC-R-PORFIRI.kmz",
        "plot_id": "24",
        "predio_id": "r_porfiri"
      },
      "geometry": {
        "type": "Polygon",
        "coordinates": [
          [
            [
              -70.71442636699999,
              -32.82273299599996
            ],
            [
              -70.71428222699996,
              -32.823281271999974
            ],
            [
              -70.71435903899999,
              -32.82336026699994
            ],
            [
              -70.71618896999996,
              -32.82319292999995
            ],
            [
              -70.71631133499994,
              -32.82300058799996
            ],
            [
              -70.71637585599996,
              -32.822852884999975
            ],
            [
              -70.71641452699998,
              -32.822700177999934
            ],
            [
              -70.71629229999996,
              -32.82263984999997
            ],
            [
              -70.71442636699999,
              -32.82273299599996
            ]
          ]
        ]
      }
    },
    {
      "type": "Feature",
      "properties": {
        "id_cuartel": "c00024",
        "nom_cuartel": "1",
        "cultivo": "Uva de mesa",
        "nom_predio": "Von Siebenthal",
        "propietario": "Vina Von Siebenthal",
        "superficie": "8.46486",
        "asesor": "Vina Von Siebenthal",
        "area_indap": "Independiente",
        "comuna": "Panquehue",
        "provincia": "San Felipe de Aconcagua",
        "poligono_cuartel": "c00024",
        "poligono_vuelo": "FIC-V-SIEBENTHAL-X",
        "fuente": "data/vectors/kml/FIC-V-SIEBENTHAL.kmz",
        "plot_id": "24",
        "predio_id": "v_siebenthal"
      },
      "geometry": {
        "type": "Polygon",
        "coordinates": [
          [
            [
              -70.835361581488,
              -32.7978876128331
            ],
            [
              -70.8350568389286,
              -32.7980431379463
            ],
            [
              -70.834796330085,
              -32.7983803274536
            ],
            [
              -70.8341299092899,
              -32.798175783276
            ],
            [
              -70.8332877568266,
              -32.7998073905954
            ],
            [
              -70.8362809996831,
              -32.8010874861915
            ],
            [
              -70.8375450849325,
              -32.7986213909796
            ],
            [
              -70.836396471128,
              -32.7981434186449
            ],
            [
              -70.835361581488,
              -32.7978876128331
            ]
          ]
        ]
      }
    },
    {
      "type": "Feature",
      "properties": {
        "id_cuartel": "c00025",
        "nom_cuartel": "2",
        "cultivo": "Uva de mesa",
        "nom_predio": "Von Siebenthal",
        "propietario": "Vina Von Siebenthal",
        "superficie": "11.23208",
        "asesor": "Vina Von Siebenthal",
        "area_indap": "Independiente",
        "comuna": "Panquehue",
        "provincia": "San Felipe de Aconcagua",
        "poligono_cuartel": "c00025",
        "poligono_vuelo": "FIC-V-SIEBENTHAL2-X",
        "fuente": "data/vectors/kml/FIC-V-SIEBENTHAL2.kmz",
        "plot_id": "",
        "predio_id": "v_siebenthal2"
      },
      "geometry": {
        "type": "Polygon",
        "coordinates": [
          [
            [
              -70.8472219901606,
              -32.8061424128847
            ],
            [
              -70.8443567098786,
              -32.8066437294698
            ],
            [
              -70.8434079510033,
              -32.8107647426885
            ],
            [
              -70.8440307110127,
              -32.8107327977193
            ],
            [
              -70.8463638679271,
              -32.8097396994647
            ],
            [
              -70.8472219901606,
              -32.8061424128847
            ]
          ]
        ]
      }
    },
    {
      "type": "Feature",
      "properties": {
        "id_cuartel": "c00026",
        "nom_cuartel": "3",
        "cultivo": "Uva de mesa",
        "nom_predio": "Von Siebenthal",
        "propietario": "Vina Von Siebenthal",
        "superficie": "5.6554",
        "asesor": "Vina Von Siebenthal",
        "area_indap": "Independiente",
        "comuna": "Panquehue",
        "provincia": "San Felipe de Aconcagua",
        "poligono_cuartel": "c00026",
        "poligono_vuelo": "FIC-V-SIEBENTHAL3-X",
        "fuente": "data/vectors/kml/FIC-V-SIEBENTHAL3.kmz",
        "plot_id": "",
        "predio_id": "v_siebenthal3"
      },
      "geometry": {
        "type": "Polygon",
        "coordinates": [
          [
            [
              -70.841707232575,
              -32.8076604705805
            ],
            [
              -70.8409035229994,
              -32.8105026573706
            ],
            [
              -70.83916446205,
              -32.8101095903057
            ],
            [
              -70.839569781091,
              -32.8087290561319
            ],
            [
              -70.8395961069789,
              -32.8072588206618
            ],
            [
              -70.841707232575,
              -32.8076604705805
            ]
          ]
        ]
      }
    },
    {
      "type": "Feature",
      "properties": {
        "id_cuartel": "c00027",
        "nom_cuartel": "1",
        "cultivo": "Alfalfa",
        "nom_predio": "NN",
        "propietario": "Anita Inguerzon",
        "superficie": "6.46012",
        "asesor": "Anita Inguerzon",
        "area_indap": "Independiente",
        "comuna": "Rinconada",
        "provincia": "Los Andes",
        "poligono_cuartel": "c00027",
        "poligono_vuelo": "FIC-A-INGUERZON-X",
        "fuente": "data/vectors/kml/FIC-A-INGUERZON.kmz",
        "plot_id": "",
        "predio_id": "a_inguerzon"
      },
      "geometry": {
        "type": "Polygon",
        "coordinates": [
          [
            [
              -70.6804241868152,
              -32.8576968321942
            ],
            [
              -70.6825299957576,
              -32.8581943210904
            ],
            [
              -70.6828356889494,
              -32.8560262811728
            ],
            [
              -70.6776919863712,
              -32.8555041070881
            ],
            [
              -70.6782410964561,
              -32.856237030381
            ],
            [
              -70.6805794853665,
              -32.8564634299341
            ],
            [
              -70.6804241868152,
              -32.8576968321942
            ]
          ]
        ]
      }
    },
    {
      "type": "Feature",
      "properties": {
        "id_cuartel": "c00028",
        "nom_cuartel": "1",
        "cultivo": "Durazno Andross",
        "nom_predio": "Trinidad",
        "propietario": "Vicente Figueroa",
        "superficie": "4.47945",
        "asesor": "Vicente Figueroa",
        "area_indap": "Independiente",
        "comuna": "Rinconada",
        "provincia": "Los Andes",
        "poligono_cuartel": "c00028",
        "poligono_vuelo": "FIC-V-FERNANDEZ-X",
        "fuente": "data/vectors/kml/FIC-V-FERNANDEZ.kmz",
        "plot_id": "",
        "predio_id": "v_fernandez"
      },
      "geometry": {
        "type": "Polygon",
        "coordinates": [
          [
            [
              -70.67681455499996,
              -32.84411415699998
            ],
            [
              -70.67674284099996,
              -32.84399776099997
            ],
            [
              -70.67669081899999,
              -32.843937349999976
            ],
            [
              -70.67657810299994,
              -32.84391610499995
            ],
            [
              -70.67356834499998,
              -32.84392691499994
            ],
            [
              -70.67360200399997,
              -32.845286431999966
            ],
            [
              -70.67677036799995,
              -32.84523210999998
            ],
            [
              -70.67683205099996,
              -32.84517390499997
            ],
            [
              -70.67681455499996,
              -32.84411415699998
            ]
          ]
        ]
      }
    },
    {
      "type": "Feature",
      "properties": {
        "id_cuartel": "c00029",
        "nom_cuartel": "2",
        "cultivo": "Uva Allison",
        "nom_predio": "Trinidad",
        "propietario": "Vicente Figueroa",
        "superficie": "2.83128",
        "asesor": "Vicente Figueroa",
        "area_indap": "Independiente",
        "comuna": "Rinconada",
        "provincia": "Los Andes",
        "poligono_cuartel": "c00029",
        "poligono_vuelo": "FIC-V-FERNANDEZ-X",
        "fuente": "data/vectors/kml/FIC-V-FERNANDEZ.kmz",
        "plot_id": "",
        "predio_id": "v_fernandez"
      },
      "geometry": {
        "type": "Polygon",
        "coordinates": [
          [
            [
              -70.67343379499994,
              -32.84495603199997
            ],
            [
              -70.67060934799997,
              -32.84496814199997
            ],
            [
              -70.67060810499999,
              -32.84648315499993
            ],
            [
              -70.67332957699995,
              -32.845422009999936
            ],
            [
              -70.67333461499999,
              -32.84526262199995
            ],
            [
              -70.67344492999996,
              -32.84525273299994
            ],
            [
              -70.67343379499994,
              -32.84495603199997
            ]
          ]
        ]
      }
    },
    {
      "type": "Feature",
      "properties": {
        "id_cuartel": "c00030",
        "nom_cuartel": "3",
        "cultivo": "Uva Ivory",
        "nom_predio": "Trinidad",
        "propietario": "Vicente Figueroa",
        "superficie": "2.81894",
        "asesor": "Vicente Figueroa",
        "area_indap": "Independiente",
        "comuna": "Rinconada",
        "provincia": "Los Andes",
        "poligono_cuartel": "c00030",
        "poligono_vuelo": "FIC-V-FERNANDEZ-X",
        "fuente": "data/vectors/kml/FIC-V-FERNANDEZ.kmz",
        "plot_id": "",
        "predio_id": "v_fernandez"
      },
      "geometry": {
        "type": "Polygon",
        "coordinates": [
          [
            [
              -70.67342258499997,
              -32.84397877099997
            ],
            [
              -70.67060453299996,
              -32.84401576399995
            ],
            [
              -70.67060930099996,
              -32.84496571699998
            ],
            [
              -70.67343392199996,
              -32.84495378099996
            ],
            [
              -70.67342258499997,
              -32.84397877099997
            ]
          ]
        ]
      }
    },
    {
      "type": "Feature",
      "properties": {
        "id_cuartel": "c00031",
        "nom_cuartel": "E1_1",
        "cultivo": "Palto",
        "nom_predio": "Palto Salazar",
        "propietario": "Rodrigo Salazar",
        "superficie": "0.63678",
        "asesor": "Rodrigo Salazar",
        "area_indap": "Independiente",
        "comuna": "Quillota",
        "provincia": "Quillota",
        "poligono_cuartel": "c00031",
        "poligono_vuelo": "FIC-R-SALAZAR-X",
        "fuente": "data/vectors/kml/FIC_R_SALAZAR/FIC_R_SALAZAR.shp",
        "plot_id": "",
        "predio_id": "r_salazar"
      },
      "geometry": {
        "type": "Polygon",
        "coordinates": [
          [
            [
              -71.29295060899994,
              -32.863561957999934
            ],
            [
              -71.29285934099994,
              -32.86359045599994
            ],
            [
              -71.29277823899997,
              -32.86362657099994
            ],
            [
              -71.29270288999999,
              -32.86366948099993
            ],
            [
              -71.29262816599999,
              -32.86373309999993
            ],
            [
              -71.29260608799996,
              -32.863765859999944
            ],
            [
              -71.29261569699997,
              -32.863779653999984
            ],
            [
              -71.29270926699996,
              -32.86376492299996
            ],
            [
              -71.29282949599997,
              -32.863755760999936
            ],
            [
              -71.29294088799998,
              -32.86375418899996
            ],
            [
              -71.29305563299994,
              -32.86375805299997
            ],
            [
              -71.29320013399996,
              -32.863773735999985
            ],
            [
              -71.29333730299999,
              -32.86375627399997
            ],
            [
              -71.29347040699997,
              -32.86375083299998
            ],
            [
              -71.29356332899994,
              -32.86374944999994
            ],
            [
              -71.29372902599994,
              -32.86372847499996
            ],
            [
              -71.29386494099998,
              -32.86370474699993
            ],
            [
              -71.29391404599994,
              -32.86368906299998
            ],
            [
              -71.29392647199995,
              -32.86367400399996
            ],
            [
              -71.29396827799997,
              -32.86365910099994
            ],
            [
              -71.29404508699997,
              -32.86363791599996
            ],
            [
              -71.29416272099996,
              -32.86361541599996
            ],
            [
              -71.29431059299998,
              -32.863598846999935
            ],
            [
              -71.29445166399995,
              -32.863568655999984
            ],
            [
              -71.29456706399998,
              -32.86355611699997
            ],
            [
              -71.29465286699997,
              -32.86355571399997
            ],
            [
              -71.29472287699997,
              -32.86356355999993
            ],
            [
              -71.29477800799998,
              -32.863557852999975
            ],
            [
              -71.29478943299995,
              -32.86353004299997
            ],
            [
              -71.29476093299996,
              -32.86346475899995
            ],
            [
              -71.29471437499996,
              -32.86336850099997
            ],
            [
              -71.29459813299997,
              -32.86315046699997
            ],
            [
              -71.29454568699998,
              -32.863140475999955
            ],
            [
              -71.29447486199996,
              -32.86314676099994
            ],
            [
              -71.29435731899997,
              -32.86318403299998
            ],
            [
              -71.29432808099995,
              -32.863202816999944
            ],
            [
              -71.29421116199995,
              -32.863246473999936
            ],
            [
              -71.29413253699994,
              -32.86327317699994
            ],
            [
              -71.29405212199998,
              -32.863307017999944
            ],
            [
              -71.29398552299995,
              -32.86333853199994
            ],
            [
              -71.29384434699995,
              -32.86337504299996
            ],
            [
              -71.29366113099996,
              -32.86342264199993
            ],
            [
              -71.29327870499998,
              -32.86349059099996
            ],
            [
              -71.29311148299996,
              -32.863529623999966
            ],
            [
              -71.29304573899998,
              -32.863545742999975
            ],
            [
              -71.29295060899994,
              -32.863561957999934
            ]
          ]
        ]
      }
    },
    {
      "type": "Feature",
      "properties": {
        "id_cuartel": "c00032",
        "nom_cuartel": "E1_2",
        "cultivo": "Palto",
        "nom_predio": "Palto Salazar",
        "propietario": "Rodrigo Salazar",
        "superficie": "1.34165",
        "asesor": "Rodrigo Salazar",
        "area_indap": "Independiente",
        "comuna": "Quillota",
        "provincia": "Quillota",
        "poligono_cuartel": "c00032",
        "poligono_vuelo": "FIC-R-SALAZAR-X",
        "fuente": "data/vectors/kml/FIC_R_SALAZAR/FIC_R_SALAZAR.shp",
        "plot_id": "",
        "predio_id": "r_salazar"
      },
      "geometry": {
        "type": "Polygon",
        "coordinates": [
          [
            [
              -71.29214259199995,
              -32.86432757599994
            ],
            [
              -71.29216752599996,
              -32.86436878599994
            ],
            [
              -71.29223145399999,
              -32.86440715599997
            ],
            [
              -71.29228271099998,
              -32.86441906599998
            ],
            [
              -71.29231620299998,
              -32.864399987999946
            ],
            [
              -71.29233144699998,
              -32.86435297299994
            ],
            [
              -71.29233649399998,
              -32.864225319999946
            ],
            [
              -71.29236096599993,
              -32.864103144999945
            ],
            [
              -71.29239238699995,
              -32.86401438199994
            ],
            [
              -71.29244146699995,
              -32.86393334099995
            ],
            [
              -71.29247969599999,
              -32.86387453999998
            ],
            [
              -71.29255738699999,
              -32.86376958899996
            ],
            [
              -71.29260651699997,
              -32.863714983999955
            ],
            [
              -71.29265538099997,
              -32.86366410299996
            ],
            [
              -71.29269751899994,
              -32.86364807199993
            ],
            [
              -71.29275343199998,
              -32.863616486999945
            ],
            [
              -71.29284759599994,
              -32.86357474199997
            ],
            [
              -71.29290846399994,
              -32.86355830499997
            ],
            [
              -71.29298156099998,
              -32.86353178599995
            ],
            [
              -71.29304584799996,
              -32.86352603599994
            ],
            [
              -71.29324781899999,
              -32.86347569499998
            ],
            [
              -71.29337124699998,
              -32.863451332999944
            ],
            [
              -71.29351617899994,
              -32.86342868899993
            ],
            [
              -71.29369257799993,
              -32.86339372499998
            ],
            [
              -71.29386447899998,
              -32.86334481799997
            ],
            [
              -71.29405463499995,
              -32.863274384999954
            ],
            [
              -71.29414308199995,
              -32.863239362999934
            ],
            [
              -71.29421364499996,
              -32.86321056899993
            ],
            [
              -71.29427179199996,
              -32.86319378099995
            ],
            [
              -71.29431709099998,
              -32.86317427499995
            ],
            [
              -71.29445117899996,
              -32.86313528199997
            ],
            [
              -71.29449567799998,
              -32.86311271899996
            ],
            [
              -71.29449573699998,
              -32.86308867799994
            ],
            [
              -71.29437366599996,
              -32.86286887999995
            ],
            [
              -71.29430156299998,
              -32.86281336099995
            ],
            [
              -71.29410739399998,
              -32.862834206999935
            ],
            [
              -71.29389606499996,
              -32.86286052699995
            ],
            [
              -71.29386014799996,
              -32.86285287099997
            ],
            [
              -71.29378829799998,
              -32.86287050799996
            ],
            [
              -71.29368068199994,
              -32.86287965199995
            ],
            [
              -71.29358535099993,
              -32.86288239999993
            ],
            [
              -71.29347449599999,
              -32.862885811999945
            ],
            [
              -71.29336597299994,
              -32.86289507599997
            ],
            [
              -71.29324375499993,
              -32.86293049899996
            ],
            [
              -71.29318599799996,
              -32.862967124999955
            ],
            [
              -71.29311799299995,
              -32.86302168799995
            ],
            [
              -71.29291831299997,
              -32.863098950999984
            ],
            [
              -71.29275741999999,
              -32.86314494099997
            ],
            [
              -71.29272929099994,
              -32.863148756999976
            ],
            [
              -71.29270270899997,
              -32.863173383999936
            ],
            [
              -71.29257655099997,
              -32.86323044099993
            ],
            [
              -71.29243067299996,
              -32.863302834999956
            ],
            [
              -71.29236304299997,
              -32.86333366599996
            ],
            [
              -71.29233252799997,
              -32.86333777999994
            ],
            [
              -71.29230118499999,
              -32.86336525899998
            ],
            [
              -71.29224148399999,
              -32.86341793399998
            ],
            [
              -71.29217616499994,
              -32.86349674899998
            ],
            [
              -71.29211735799998,
              -32.86360587299998
            ],
            [
              -71.29207172199995,
              -32.86373095399995
            ],
            [
              -71.29202836199994,
              -32.863809241999945
            ],
            [
              -71.29200577299997,
              -32.86386137899996
            ],
            [
              -71.29198698599998,
              -32.86390045799993
            ],
            [
              -71.29196091999995,
              -32.86397166599994
            ],
            [
              -71.29194861999997,
              -32.86401700899995
            ],
            [
              -71.29200157799994,
              -32.864071499999966
            ],
            [
              -71.29203121599994,
              -32.86410743199997
            ],
            [
              -71.29205132999994,
              -32.86417400299996
            ],
            [
              -71.29211783499994,
              -32.86428840399998
            ],
            [
              -71.29214259199995,
              -32.86432757599994
            ]
          ]
        ]
      }
    },
    {
      "type": "Feature",
      "properties": {
        "id_cuartel": "c00033",
        "nom_cuartel": "E1_3",
        "cultivo": "Palto",
        "nom_predio": "Palto Salazar",
        "propietario": "Rodrigo Salazar",
        "superficie": "0.54983",
        "asesor": "Rodrigo Salazar",
        "area_indap": "Independiente",
        "comuna": "Quillota",
        "provincia": "Quillota",
        "poligono_cuartel": "c00033",
        "poligono_vuelo": "FIC-R-SALAZAR-X",
        "fuente": "data/vectors/kml/FIC_R_SALAZAR/FIC_R_SALAZAR.shp",
        "plot_id": "",
        "predio_id": "r_salazar"
      },
      "geometry": {
        "type": "Polygon",
        "coordinates": [
          [
            [
              -71.29193178899999,
              -32.86399266999996
            ],
            [
              -71.29195781899995,
              -32.86396064099995
            ],
            [
              -71.29198349699993,
              -32.86387656499994
            ],
            [
              -71.29203549199997,
              -32.863784850999934
            ],
            [
              -71.29206562299998,
              -32.86369874199994
            ],
            [
              -71.29215007699997,
              -32.86351125199997
            ],
            [
              -71.29226644499994,
              -32.86336453699994
            ],
            [
              -71.29234191599994,
              -32.86332614999998
            ],
            [
              -71.29243150899998,
              -32.863271588999964
            ],
            [
              -71.29244344699998,
              -32.86326431899994
            ],
            [
              -71.29256826499994,
              -32.863218579999966
            ],
            [
              -71.29270127299998,
              -32.86314061499996
            ],
            [
              -71.29269488099999,
              -32.86310929999996
            ],
            [
              -71.29266023799994,
              -32.86308403499993
            ],
            [
              -71.29256996499998,
              -32.86305564399993
            ],
            [
              -71.29242634199994,
              -32.863033848999976
            ],
            [
              -71.29229944099995,
              -32.863020811999945
            ],
            [
              -71.29219290899994,
              -32.86300890999996
            ],
            [
              -71.29203113899996,
              -32.86298640399997
            ],
            [
              -71.29198135799999,
              -32.86299908199993
            ],
            [
              -71.29188167999996,
              -32.863109615999974
            ],
            [
              -71.29181683899998,
              -32.86317844499996
            ],
            [
              -71.29176930699998,
              -32.86320657899995
            ],
            [
              -71.29170976099994,
              -32.86331671999994
            ],
            [
              -71.29168156999998,
              -32.86338928499998
            ],
            [
              -71.29166707299999,
              -32.863443417999974
            ],
            [
              -71.29167104799996,
              -32.86348311199998
            ],
            [
              -71.29157256899998,
              -32.863635614999964
            ],
            [
              -71.29150392799994,
              -32.863689868999984
            ],
            [
              -71.29150242699995,
              -32.863748777999945
            ],
            [
              -71.29157466499998,
              -32.86380024799996
            ],
            [
              -71.29166278399998,
              -32.863856262999946
            ],
            [
              -71.29176590599997,
              -32.86391214699995
            ],
            [
              -71.29183493799997,
              -32.86395233099995
            ],
            [
              -71.29188185599997,
              -32.86398582199996
            ],
            [
              -71.29193178899999,
              -32.86399266999996
            ]
          ]
        ]
      }
    },
    {
      "type": "Feature",
      "properties": {
        "id_cuartel": "c00034",
        "nom_cuartel": "E1_4",
        "cultivo": "Palto",
        "nom_predio": "Palto Salazar",
        "propietario": "Rodrigo Salazar",
        "superficie": "0.54211",
        "asesor": "Rodrigo Salazar",
        "area_indap": "Independiente",
        "comuna": "Quillota",
        "provincia": "Quillota",
        "poligono_cuartel": "c00034",
        "poligono_vuelo": "FIC-R-SALAZAR-X",
        "fuente": "data/vectors/kml/FIC_R_SALAZAR/FIC_R_SALAZAR.shp",
        "plot_id": "",
        "predio_id": "r_salazar"
      },
      "geometry": {
        "type": "Polygon",
        "coordinates": [
          [
            [
              -71.29149949099997,
              -32.863680905999956
            ],
            [
              -71.29154428699997,
              -32.86364493399998
            ],
            [
              -71.29158252699995,
              -32.86360799399995
            ],
            [
              -71.29161966999999,
              -32.86355561399995
            ],
            [
              -71.29165095699994,
              -32.86349992299995
            ],
            [
              -71.29166383899997,
              -32.86348080799996
            ],
            [
              -71.29166236599997,
              -32.86344645999998
            ],
            [
              -71.29168529599997,
              -32.86335695199995
            ],
            [
              -71.29170188299997,
              -32.86329339799994
            ],
            [
              -71.29172895599999,
              -32.86324548199997
            ],
            [
              -71.29176306399995,
              -32.86319923099995
            ],
            [
              -71.29180603599997,
              -32.863163345999965
            ],
            [
              -71.29185854599996,
              -32.86311061299995
            ],
            [
              -71.29187731499997,
              -32.86308959799993
            ],
            [
              -71.29190262499998,
              -32.863060480999934
            ],
            [
              -71.29194119699997,
              -32.86301941499994
            ],
            [
              -71.29196185799998,
              -32.86296466899995
            ],
            [
              -71.29193873699995,
              -32.862930854999945
            ],
            [
              -71.29182187099997,
              -32.86284154699996
            ],
            [
              -71.29177408999993,
              -32.86280759899995
            ],
            [
              -71.29171336099995,
              -32.86278092099997
            ],
            [
              -71.29161876199998,
              -32.862742124999954
            ],
            [
              -71.29151889199994,
              -32.86272143899998
            ],
            [
              -71.29142251799993,
              -32.86268670599998
            ],
            [
              -71.29136062699996,
              -32.862668301999975
            ],
            [
              -71.29129091699997,
              -32.86265105799998
            ],
            [
              -71.29123374399995,
              -32.86262752099998
            ],
            [
              -71.29116958599997,
              -32.86260932899995
            ],
            [
              -71.29111732899997,
              -32.86262254999997
            ],
            [
              -71.29108569199997,
              -32.86266476399993
            ],
            [
              -71.29106785699997,
              -32.86272942199997
            ],
            [
              -71.29109241699996,
              -32.86277990199994
            ],
            [
              -71.29111972799996,
              -32.86284014499995
            ],
            [
              -71.29118200499994,
              -32.862884649999955
            ],
            [
              -71.29125983699998,
              -32.86293254599997
            ],
            [
              -71.29128609199995,
              -32.86295566699994
            ],
            [
              -71.29130418499994,
              -32.863043696999966
            ],
            [
              -71.29129936499999,
              -32.863090531999944
            ],
            [
              -71.29126794799998,
              -32.863148819999935
            ],
            [
              -71.29122835199996,
              -32.86322736899996
            ],
            [
              -71.29119938399998,
              -32.86331781299998
            ],
            [
              -71.29119851299998,
              -32.86340431599996
            ],
            [
              -71.29123749599995,
              -32.86347577799995
            ],
            [
              -71.29127027199996,
              -32.86354092999994
            ],
            [
              -71.29133316299993,
              -32.86362604899995
            ],
            [
              -71.29141079099998,
              -32.86369635799997
            ],
            [
              -71.29146268499994,
              -32.86372026699996
            ],
            [
              -71.29149949099997,
              -32.863680905999956
            ]
          ]
        ]
      }
    },
    {
      "type": "Feature",
      "properties": {
        "id_cuartel": "c00035",
        "nom_cuartel": "E1_5",
        "cultivo": "Palto",
        "nom_predio": "Palto Salazar",
        "propietario": "Rodrigo Salazar",
        "superficie": "0.32991",
        "asesor": "Rodrigo Salazar",
        "area_indap": "Independiente",
        "comuna": "Quillota",
        "provincia": "Quillota",
        "poligono_cuartel": "c00035",
        "poligono_vuelo": "FIC-R-SALAZAR-X",
        "fuente": "data/vectors/kml/FIC_R_SALAZAR/FIC_R_SALAZAR.shp",
        "plot_id": "",
        "predio_id": "r_salazar"
      },
      "geometry": {
        "type": "Polygon",
        "coordinates": [
          [
            [
              -71.29063789199995,
              -32.863956851999944
            ],
            [
              -71.29064195499996,
              -32.86397803299997
            ],
            [
              -71.29067246799997,
              -32.864076652999984
            ],
            [
              -71.29070317499998,
              -32.86418551199995
            ],
            [
              -71.29073952799996,
              -32.86429374099998
            ],
            [
              -71.29077261399993,
              -32.86437343499995
            ],
            [
              -71.29082277799995,
              -32.86451207999994
            ],
            [
              -71.29094241999996,
              -32.86451289499996
            ],
            [
              -71.29113940499997,
              -32.86453089099996
            ],
            [
              -71.29115010599998,
              -32.864505951999945
            ],
            [
              -71.29114403899996,
              -32.86447190999996
            ],
            [
              -71.29114571999997,
              -32.86443124899995
            ],
            [
              -71.29115114099994,
              -32.86432191199998
            ],
            [
              -71.29114728199994,
              -32.86428326999993
            ],
            [
              -71.29114830899994,
              -32.86423706399995
            ],
            [
              -71.29115935099998,
              -32.86422149599997
            ],
            [
              -71.29121455699993,
              -32.86420163399998
            ],
            [
              -71.29128777799997,
              -32.864177627999936
            ],
            [
              -71.29135447799996,
              -32.86414580799993
            ],
            [
              -71.29141739399995,
              -32.86412544999996
            ],
            [
              -71.29146513199998,
              -32.86410083299995
            ],
            [
              -71.29154848099995,
              -32.86406511299998
            ],
            [
              -71.29156512099996,
              -32.86404443099997
            ],
            [
              -71.29154408399995,
              -32.864008818999935
            ],
            [
              -71.29149724999996,
              -32.86398668199996
            ],
            [
              -71.29142399899996,
              -32.86398215199995
            ],
            [
              -71.29133685199997,
              -32.863974783999936
            ],
            [
              -71.29123001399995,
              -32.86395091999998
            ],
            [
              -71.29113384299995,
              -32.86394150999996
            ],
            [
              -71.29098371499998,
              -32.86393821399997
            ],
            [
              -71.29081130999998,
              -32.863942006999935
            ],
            [
              -71.29075267399998,
              -32.86393756799998
            ],
            [
              -71.29067042299994,
              -32.86393431699997
            ],
            [
              -71.29064524199998,
              -32.863941463999936
            ],
            [
              -71.29063789199995,
              -32.863956851999944
            ]
          ]
        ]
      }
    }
  ]
}
