{
  "type": "FeatureCollection",
  "name": "predios",
  "features": [
    {
      "type": "Feature",
      "properties": {
        "id_cuartel": "c00001",
        "nom_cuartel": "1",
        "cultivo": "Uva de mesa",
        "nom_predio": "Parcela 17",
        "propietario": "Luisa Martinez",
        "superficie": "1.04218",
        "asesor": "Guillermo Vasquez",
        "area_indap": "Los Andes",
        "comuna": "San Esteban",
        "provincia": "Los Andes",
        "poligono_cuartel": "c00001",
        "poligono_vuelo": "FIC-L-MARTINEZ-X",
        "fuente": "data/shapefiles/predios_g_vasquez/predios_gv.shp",
        "plot_id": "14",
        "wetland_id": "l_martinez"
      },
      "geometry": {
        "type": "Polygon",
        "coordinates": [
          [
            [
              -70.58237310999993,
              -32.751065095999934
            ],
            [
              -70.58251717799999,
              -32.75103163299997
            ],
            [
              -70.58261450599997,
              -32.75127355899997
            ],
            [
              -70.58342317899996,
              -32.75113217899997
            ],
            [
              -70.58302231099998,
              -32.75009703499995
            ],
            [
              -70.58207943199994,
              -32.75030020699995
            ],
            [
              -70.58237310999993,
              -32.751065095999934
            ]
          ]
        ]
      }
    },
    {
      "type": "Feature",
      "properties": {
        "id_cuartel": "c00002",
        "nom_cuartel": "1",
        "cultivo": "Uva de mesa",
        "nom_predio": "Parcela 31",
        "propietario": "Roxana Pani",
        "superficie": "2.33416",
        "asesor": "Guillermo Vasquez",
        "area_indap": "Los Andes",
        "comuna": "San Esteban",
        "provincia": "Los Andes",
        "poligono_cuartel": "c00002",
        "poligono_vuelo": "FIC-R-PANI-X",
        "fuente": "data/shapefiles/predios_g_vasquez/predios_gv.shp",
        "plot_id": "04",
        "wetland_id": "r_pani"
      },
      "geometry": {
        "type": "Polygon",
        "coordinates": [
          [
            [
              -70.60084902699998,
              -32.744061519999946
            ],
            [
              -70.60338868599996,
              -32.74440990699998
            ],
            [
              -70.60354915899995,
              -32.744134343999974
            ],
            [
              -70.60348096999996,
              -32.743428791999975
            ],
            [
              -70.60155129099996,
              -32.74320111999998
            ],
            [
              -70.60147209499996,
              -32.743662348999976
            ],
            [
              -70.60092676999994,
              -32.74357649999996
            ],
            [
              -70.60084902699998,
              -32.744061519999946
            ]
          ]
        ]
      }
    },
    {
      "type": "Feature",
      "properties": {
        "id_cuartel": "c00003",
        "nom_cuartel": "2",
        "cultivo": "Uva de mesa",
        "nom_predio": "Parcela 31",
        "propietario": "Roxana Pani",
        "superficie": "2.39736",
        "asesor": "Guillermo Vasquez",
        "area_indap": "Los Andes",
        "comuna": "San Esteban",
        "provincia": "Los Andes",
        "poligono_cuartel": "c00003",
        "poligono_vuelo": "FIC-R-PANI-X",
        "fuente": "data/shapefiles/predios_g_vasquez/predios_gv.shp",
        "plot_id": "04",
        "wetland_id": "r_pani"
      },
      "geometry": {
        "type": "Polygon",
        "coordinates": [
          [
            [
              -70.60340804099997,
              -32.74447059399995
            ],
            [
              -70.60083955499994,
              -32.744108822999976
            ],
            [
              -70.60071316299997,
              -32.744896592999964
            ],
            [
              -70.60077147499999,
              -32.74491321099998
            ],
            [
              -70.60075493799997,
              -32.74502785899995
            ],
            [
              -70.60325099999994,
              -32.745325038999965
            ],
            [
              -70.60340804099997,
              -32.74447059399995
            ]
          ]
        ]
      }
    },
    {
      "type": "Feature",
      "properties": {
        "id_cuartel": "c00004",
        "nom_cuartel": "Eugenia Aranda",
        "cultivo": "Uva de mesa",
        "nom_predio": "Parcela 8",
        "propietario": "Domingo Mondaca",
        "superficie": "0.89014",
        "asesor": "Guillermo Vasquez",
        "area_indap": "Los Andes",
        "comuna": "San Esteban",
        "provincia": "Los Andes",
        "poligono_cuartel": "c00004",
        "poligono_vuelo": "FIC-D-MONDACA-X",
        "fuente": "data/shapefiles/predios_g_vasquez/predios_gv.shp",
        "plot_id": "02",
        "wetland_id": "d_mondaca"
      },
      "geometry": {
        "type": "Polygon",
        "coordinates": [
          [
            [
              -70.58983863599997,
              -32.74128443899997
            ],
            [
              -70.58920830499994,
              -32.74124836599998
            ],
            [
              -70.58932299699995,
              -32.74259132199995
            ],
            [
              -70.58998383599999,
              -32.74260446099993
            ],
            [
              -70.58983863599997,
              -32.74128443899997
            ]
          ]
        ]
      }
    },
    {
      "type": "Feature",
      "properties": {
        "id_cuartel": "c00005",
        "nom_cuartel": "Blanca Aranda",
        "cultivo": "Uva de mesa",
        "nom_predio": "Parcela 8",
        "propietario": "Domingo Mondaca",
        "superficie": "0.94251",
        "asesor": "Guillermo Vasquez",
        "area_indap": "Los Andes",
        "comuna": "San Esteban",
        "provincia": "Los Andes",
        "poligono_cuartel": "c00005",
        "poligono_vuelo": "FIC-D-MONDACA-X",
        "fuente": "data/shapefiles/predios_g_vasquez/predios_gv.shp",
        "plot_id": "02",
        "wetland_id": "d_mondaca"
      },
      "geometry": {
        "type": "Polygon",
        "coordinates": [
          [
            [
              -70.58920737599993,
              -32.74124797999997
            ],
            [
              -70.58852492299997,
              -32.74120667099993
            ],
            [
              -70.58863122399998,
              -32.742523913999946
            ],
            [
              -70.58932216999995,
              -32.74258881299994
            ],
            [
              -70.58920737599993,
              -32.74124797999997
            ]
          ]
        ]
      }
    },
    {
      "type": "Feature",
      "properties": {
        "id_cuartel": "c00006",
        "nom_cuartel": "Domingo Mondaca",
        "cultivo": "Uva de mesa",
        "nom_predio": "Parcela 8",
        "propietario": "Domingo Mondaca",
        "superficie": "0.90939",
        "asesor": "Guillermo Vasquez",
        "area_indap": "Los Andes",
        "comuna": "San Esteban",
        "provincia": "Los Andes",
        "poligono_cuartel": "c00006",
        "poligono_vuelo": "FIC-D-MONDACA-X",
        "fuente": "data/shapefiles/predios_g_vasquez/predios_gv.shp",
        "plot_id": "02",
        "wetland_id": "d_mondaca"
      },
      "geometry": {
        "type": "Polygon",
        "coordinates": [
          [
            [
              -70.58852639199995,
              -32.741207885999984
            ],
            [
              -70.58818783499999,
              -32.74118956199993
            ],
            [
              -70.58816499999995,
              -32.74140499999993
            ],
            [
              -70.58809551299998,
              -32.741645534999975
            ],
            [
              -70.58755599599994,
              -32.74189497799995
            ],
            [
              -70.58785306099998,
              -32.74242061399997
            ],
            [
              -70.58863450699994,
              -32.74252460399998
            ],
            [
              -70.58852639199995,
              -32.741207885999984
            ]
          ]
        ]
      }
    },
    {
      "type": "Feature",
      "properties": {
        "id_cuartel": "c00007",
        "nom_cuartel": "1",
        "cultivo": "Uva de mesa",
        "nom_predio": "Parcela 14",
        "propietario": "Juan Contreras",
        "superficie": "1.91006",
        "asesor": "Guillermo Vasquez",
        "area_indap": "Los Andes",
        "comuna": "San Esteban",
        "provincia": "Los Andes",
        "poligono_cuartel": "c00007",
        "poligono_vuelo": "FIC-J-CONTRERAS-X",
        "fuente": "data/shapefiles/predios_g_vasquez/predios_gv.shp",
        "plot_id": "07",
        "wetland_id": "j_contreras"
      },
      "geometry": {
        "type": "Polygon",
        "coordinates": [
          [
            [
              -70.61519203799998,
              -32.74863468899997
            ],
            [
              -70.61681858699995,
              -32.748388715999965
            ],
            [
              -70.61673636599994,
              -32.74760559199996
            ],
            [
              -70.61656512199994,
              -32.74701942699994
            ],
            [
              -70.61548096699994,
              -32.747347970999954
            ],
            [
              -70.61519203799998,
              -32.74863468899997
            ]
          ]
        ]
      }
    },
    {
      "type": "Feature",
      "properties": {
        "id_cuartel": "c00008",
        "nom_cuartel": "1",
        "cultivo": "Durazno conservero",
        "nom_predio": "Parcela 24",
        "propietario": "Emilio Sazo",
        "superficie": "1.52263",
        "asesor": "Guillermo Vasquez",
        "area_indap": "Los Andes",
        "comuna": "San Esteban",
        "provincia": "Los Andes",
        "poligono_cuartel": "c00008",
        "poligono_vuelo": "FIC-E-SAZO-X",
        "fuente": "data/shapefiles/predios_g_vasquez/predios_gv.shp",
        "plot_id": "01",
        "wetland_id": "e_sazo"
      },
      "geometry": {
        "type": "Polygon",
        "coordinates": [
          [
            [
              -70.59223125899996,
              -32.73473456299996
            ],
            [
              -70.59119564899999,
              -32.73501181299997
            ],
            [
              -70.59134266899997,
              -32.735498191999966
            ],
            [
              -70.59174001399998,
              -32.735387282999966
            ],
            [
              -70.59210630199993,
              -32.73669332099996
            ],
            [
              -70.59278249599998,
              -32.73649414399995
            ],
            [
              -70.59223125899996,
              -32.73473456299996
            ]
          ]
        ]
      }
    },
    {
      "type": "Feature",
      "properties": {
        "id_cuartel": "c00009",
        "nom_cuartel": "2",
        "cultivo": "Uva Red Globe",
        "nom_predio": "Parcela 24",
        "propietario": "Emilio Sazo",
        "superficie": "1.13928",
        "asesor": "Guillermo Vasquez",
        "area_indap": "Los Andes",
        "comuna": "San Esteban",
        "provincia": "Los Andes",
        "poligono_cuartel": "c00009",
        "poligono_vuelo": "FIC-E-SAZO-X",
        "fuente": "data/shapefiles/predios_g_vasquez/predios_gv.shp",
        "plot_id": "01",
        "wetland_id": "e_sazo"
      },
      "geometry": {
        "type": "Polygon",
        "coordinates": [
          [
            [
              -70.59171257599996,
              -32.73540690999994
            ],
            [
              -70.59091185099999,
              -32.73564149599997
            ],
            [
              -70.59126809299994,
              -32.73691229299993
            ],
            [
              -70.59205754599998,
              -32.73669291899995
            ],
            [
              -70.59171257599996,
              -32.73540690999994
            ]
          ]
        ]
      }
    },
    {
      "type": "Feature",
      "properties": {
        "id_cuartel": "c00010",
        "nom_cuartel": "3",
        "cultivo": "Uva Red Globe",
        "nom_predio": "Parcela 24",
        "propietario": "Emilio Sazo",
        "superficie": "0.78926",
        "asesor": "Guillermo Vasquez",
        "area_indap": "Los Andes",
        "comuna": "San Esteban",
        "provincia": "Los Andes",
        "poligono_cuartel": "c00010",
        "poligono_vuelo": "FIC-E-SAZO-X",
        "fuente": "data/shapefiles/predios_g_vasquez/predios_gv.shp",
        "plot_id": "01",
        "wetland_id": "e_sazo"
      },
      "geometry": {
        "type": "Polygon",
        "coordinates": [
          [
            [
              -70.59088639399994,
              -32.73572445299993
            ],
            [
              -70.59035239099995,
              -32.73586708299996
            ],
            [
              -70.59058461799998,
              -32.73711334899997
            ],
            [
              -70.59121787099997,
              -32.73691596499998
            ],
            [
              -70.59088639399994,
              -32.73572445299993
            ]
          ]
        ]
      }
    },
    {
      "type": "Feature",
      "properties": {
        "id_cuartel": "c00011",
        "nom_cuartel": "1",
        "cultivo": "Nectarin",
        "nom_predio": "NN",
        "propietario": "Oscar Herrera",
        "superficie": "4.31247",
        "asesor": "Guillermo Vasquez",
        "area_indap": "Los Andes",
        "comuna": "San Esteban",
        "provincia": "Los Andes",
        "poligono_cuartel": "c00011",
        "poligono_vuelo": "FIC-O-HERRERA-X",
        "fuente": "data/shapefiles/predios_g_vasquez/predios_gv.shp",
        "plot_id": "24",
        "wetland_id": "o_herrera"
      },
      "geometry": {
        "type": "Polygon",
        "coordinates": [
          [
            [
              -70.67425491299997,
              -32.74730938599998
            ],
            [
              -70.67216983499998,
              -32.74787360999994
            ],
            [
              -70.67253395699998,
              -32.74961434299996
            ],
            [
              -70.67497609599997,
              -32.74896155699997
            ],
            [
              -70.67425491299997,
              -32.74730938599998
            ]
          ]
        ]
      }
    },
    {
      "type": "Feature",
      "properties": {
        "id_cuartel": "c00012",
        "nom_cuartel": "1",
        "cultivo": "Palto",
        "nom_predio": "El resguardo",
        "propietario": "Alejandra Brito",
        "superficie": "1.40778",
        "asesor": "Alejandra Brito",
        "area_indap": "Independiente",
        "comuna": "Nogales",
        "provincia": "Quillota",
        "poligono_cuartel": "c00012",
        "poligono_vuelo": "FIC-A-BRITO-X",
        "fuente": "data/shapefiles/predios_a_brito/predio_RPA.geojson",
        "plot_id": "24",
        "wetland_id": "a_brito_rpa"
      },
      "geometry": {
        "type": "Polygon",
        "coordinates": [
          [
            [
              -71.21653734299997,
              -32.769070176999946
            ],
            [
              -71.21634805399998,
              -32.769105975999935
            ],
            [
              -71.21626015399994,
              -32.76922951299997
            ],
            [
              -71.21623760899996,
              -32.769328059999964
            ],
            [
              -71.21606604599998,
              -32.76951361399995
            ],
            [
              -71.21592648399997,
              -32.76972941699995
            ],
            [
              -71.21576073999995,
              -32.77024777999998
            ],
            [
              -71.21576533599995,
              -32.77039544499996
            ],
            [
              -71.21585444699997,
              -32.77047135099997
            ],
            [
              -71.21580089899999,
              -32.77055492299996
            ],
            [
              -71.21570652699995,
              -32.77063989399994
            ],
            [
              -71.21567323999994,
              -32.77096966199997
            ],
            [
              -71.21559013399997,
              -32.77133172499998
            ],
            [
              -71.21604965999995,
              -32.77133595699996
            ],
            [
              -71.21619062399998,
              -32.77115883199997
            ],
            [
              -71.21627508899996,
              -32.77110019299994
            ],
            [
              -71.21645497399999,
              -32.77107915199997
            ],
            [
              -71.21641243599998,
              -32.77085136499994
            ],
            [
              -71.21641706099996,
              -32.770487712999966
            ],
            [
              -71.21643388899997,
              -32.76996419599993
            ],
            [
              -71.21657469099995,
              -32.769541742999934
            ],
            [
              -71.21683425099997,
              -32.76919192899993
            ],
            [
              -71.21653734299997,
              -32.769070176999946
            ]
          ]
        ]
      }
    },
    {
      "type": "Feature",
      "properties": {
        "id_cuartel": "c00013",
        "nom_cuartel": "2",
        "cultivo": "Palto",
        "nom_predio": "El resguardo",
        "propietario": "Alejandra Brito",
        "superficie": "0.77359",
        "asesor": "Alejandra Brito",
        "area_indap": "Independiente",
        "comuna": "Nogales",
        "provincia": "Quillota",
        "poligono_cuartel": "c00013",
        "poligono_vuelo": "FIC-A-BRITO-X",
        "fuente": "",
        "plot_id": "",
        "wetland_id": "a_brito_rpa"
      },
      "geometry": {
        "type": "Polygon",
        "coordinates": [
          [
            [
              -71.21636179299998,
              -32.76905069299994
            ],
            [
              -71.21626643099995,
              -32.76899926699997
            ],
            [
              -71.21590530499998,
              -32.76916816299996
            ],
            [
              -71.21578627699995,
              -32.769205701999965
            ],
            [
              -71.21555277499994,
              -32.76925419899993
            ],
            [
              -71.21519849799995,
              -32.76938948399993
            ],
            [
              -71.21509480099996,
              -32.76943354399998
            ],
            [
              -71.21522295099999,
              -32.76967439799995
            ],
            [
              -71.21538103199998,
              -32.76994672099994
            ],
            [
              -71.21540357399994,
              -32.770062681999946
            ],
            [
              -71.21541052699996,
              -32.77013541899993
            ],
            [
              -71.21540964399998,
              -32.77026159099995
            ],
            [
              -71.21546246599996,
              -32.770331375999945
            ],
            [
              -71.21562912999997,
              -32.77039945799993
            ],
            [
              -71.21568886999995,
              -32.77035108299998
            ],
            [
              -71.21592930499997,
              -32.76968296699994
            ],
            [
              -71.21636179299998,
              -32.76905069299994
            ]
          ]
        ]
      }
    },
    {
      "type": "Feature",
      "properties": {
        "id_cuartel": "c00014",
        "nom_cuartel": "3",
        "cultivo": "Limones",
        "nom_predio": "El resguardo",
        "propietario": "Alejandra Brito",
        "superficie": "4.59594",
        "asesor": "Alejandra Brito",
        "area_indap": "Independiente",
        "comuna": "Nogales",
        "provincia": "Quillota",
        "poligono_cuartel": "c00014",
        "poligono_vuelo": "FIC-A-BRITO-X",
        "fuente": "data/shapefiles/predios_a_brito/predio_RPA.geojson",
        "plot_id": "24",
        "wetland_id": "a_brito_rci"
      },
      "geometry": {
        "type": "Polygon",
        "coordinates": [
          [
            [
              -71.20555519299995,
              -32.76216113999993
            ],
            [
              -71.20433979599994,
              -32.76359459599996
            ],
            [
              -71.20441020899995,
              -32.76366934899994
            ],
            [
              -71.20470425099995,
              -32.763799640999935
            ],
            [
              -71.20499266599995,
              -32.76390514299993
            ],
            [
              -71.20536142599997,
              -32.76399079899994
            ],
            [
              -71.20551807399994,
              -32.76404522099995
            ],
            [
              -71.20564168899995,
              -32.764108577999934
            ],
            [
              -71.20582019099999,
              -32.764234252999984
            ],
            [
              -71.20596685199996,
              -32.76429549899996
            ],
            [
              -71.20634067799995,
              -32.76435542199994
            ],
            [
              -71.20684145299998,
              -32.76428375699993
            ],
            [
              -71.20724621799997,
              -32.764100465999945
            ],
            [
              -71.20731523799998,
              -32.76407322899996
            ],
            [
              -71.20739810699996,
              -32.76408533199998
            ],
            [
              -71.20765884299993,
              -32.76417934299997
            ],
            [
              -71.20810296099995,
              -32.76366340399994
            ],
            [
              -71.20555519299995,
              -32.76216113999993
            ]
          ]
        ]
      }
    },
    {
      "type": "Feature",
      "properties": {
        "id_cuartel": "c00015",
        "nom_cuartel": "1",
        "cultivo": "Limones",
        "nom_predio": "Agr. Rivarola",
        "propietario": "Bruno Devoto",
        "superficie": "1.58594",
        "asesor": "Bruno Devoto",
        "area_indap": "Independiente",
        "comuna": "Limache",
        "provincia": "Marga Marga",
        "poligono_cuartel": "c00015",
        "poligono_vuelo": "FIC-B-DEVOTO-X",
        "fuente": "data/shapefiles/predios_b_devoto/Rivarola-60m.kmz",
        "plot_id": "24",
        "wetland_id": "b_devoto"
      },
      "geometry": {
        "type": "Polygon",
        "coordinates": [
          [
            [
              -71.26066967999998,
              -32.99387101899998
            ],
            [
              -71.25941017799994,
              -32.99440759999993
            ],
            [
              -71.25901301399995,
              -32.99451312999997
            ],
            [
              -71.25816562399996,
              -32.994748999999956
            ],
            [
              -71.25764172799995,
              -32.99483731899994
            ],
            [
              -71.25795778499997,
              -32.99547401899997
            ],
            [
              -71.26087688899997,
              -32.99422763399997
            ],
            [
              -71.26066967999998,
              -32.99387101899998
            ]
          ]
        ]
      }
    },
    {
      "type": "Feature",
      "properties": {
        "id_cuartel": "c00016",
        "nom_cuartel": "2",
        "cultivo": "Limones",
        "nom_predio": "Agr. Rivarola",
        "propietario": "Bruno Devoto",
        "superficie": "1.75524",
        "asesor": "Bruno Devoto",
        "area_indap": "Independiente",
        "comuna": "Limache",
        "provincia": "Marga Marga",
        "poligono_cuartel": "c00016",
        "poligono_vuelo": "FIC-B-DEVOTO-X",
        "fuente": "",
        "plot_id": "",
        "wetland_id": "b_devoto"
      },
      "geometry": {
        "type": "Polygon",
        "coordinates": [
          [
            [
              -71.26054977099994,
              -32.99441438399998
            ],
            [
              -71.25815202299998,
              -32.99541813099995
            ],
            [
              -71.25856497899997,
              -32.99625736899998
            ],
            [
              -71.25865052899996,
              -32.99612306999995
            ],
            [
              -71.25876802099998,
              -32.99599691999998
            ],
            [
              -71.25885477199995,
              -32.99591263599996
            ],
            [
              -71.25897429499997,
              -32.995837525999946
            ],
            [
              -71.25961373999996,
              -32.99546838099997
            ],
            [
              -71.25975156199996,
              -32.99535687699995
            ],
            [
              -71.26011362599996,
              -32.99516100599993
            ],
            [
              -71.26027406999998,
              -32.99509854499996
            ],
            [
              -71.26047160999997,
              -32.99506302699996
            ],
            [
              -71.26067649199996,
              -32.99506122599996
            ],
            [
              -71.26058681999996,
              -32.99487412299993
            ],
            [
              -71.26092372799997,
              -32.99472617499998
            ],
            [
              -71.26077125499995,
              -32.99444571299995
            ],
            [
              -71.26060304099997,
              -32.99450940299994
            ],
            [
              -71.26054977099994,
              -32.99441438399998
            ]
          ]
        ]
      }
    },
    {
      "type": "Feature",
      "properties": {
        "id_cuartel": "c00017",
        "nom_cuartel": "3",
        "cultivo": "Limones",
        "nom_predio": "Agr. Rivarola",
        "propietario": "Bruno Devoto",
        "superficie": "5.05378",
        "asesor": "Bruno Devoto",
        "area_indap": "Independiente",
        "comuna": "Limache",
        "provincia": "Marga Marga",
        "poligono_cuartel": "c00017",
        "poligono_vuelo": "FIC-B-DEVOTO-X",
        "fuente": "data/shapefiles/predios_b_devoto/Rivarola-60m.kmz",
        "plot_id": "24",
        "wetland_id": "b_devoto"
      },
      "geometry": {
        "type": "Polygon",
        "coordinates": [
          [
            [
              -71.26078133299995,
              -32.995107495999946
            ],
            [
              -71.26060009599996,
              -32.995192101999976
            ],
            [
              -71.26053339099997,
              -32.995085306999954
            ],
            [
              -71.26043775499994,
              -32.99508045299996
            ],
            [
              -71.26027877899998,
              -32.99512443399993
            ],
            [
              -71.26022395399997,
              -32.995127338999964
            ],
            [
              -71.26013772999994,
              -32.99515717299994
            ],
            [
              -71.26009874899995,
              -32.995176853999965
            ],
            [
              -71.26003132799997,
              -32.99522590199996
            ],
            [
              -71.25985572099995,
              -32.995313548999945
            ],
            [
              -71.25973293999994,
              -32.99538390599997
            ],
            [
              -71.25965528199998,
              -32.99545194299998
            ],
            [
              -71.25953910999993,
              -32.99553258599997
            ],
            [
              -71.25938971499994,
              -32.995610805999945
            ],
            [
              -71.25926583799998,
              -32.99567830799998
            ],
            [
              -71.25920394999997,
              -32.99572365599994
            ],
            [
              -71.25893673999997,
              -32.99587110599998
            ],
            [
              -71.25876220599997,
              -32.99602993099995
            ],
            [
              -71.25883691299998,
              -32.99619096799995
            ],
            [
              -71.25918740099996,
              -32.996019743999966
            ],
            [
              -71.25968662799994,
              -32.99577657899994
            ],
            [
              -71.25988109899998,
              -32.99567483799996
            ],
            [
              -71.26010811699996,
              -32.995558692999964
            ],
            [
              -71.26038670999998,
              -32.99543770499997
            ],
            [
              -71.26054768999995,
              -32.99538544899997
            ],
            [
              -71.26086738599997,
              -32.995267282999976
            ],
            [
              -71.26078133299995,
              -32.995107495999946
            ]
          ]
        ]
      }
    },
    {
      "type": "Feature",
      "properties": {
        "id_cuartel": "c00018",
        "nom_cuartel": "1",
        "cultivo": "Nogales",
        "nom_predio": "NN",
        "propietario": "Claudio Alvarado",
        "superficie": "2.16838",
        "asesor": "Ramiro Martínez",
        "area_indap": "Los Andes",
        "comuna": "San Esteban",
        "provincia": "Los Andes",
        "poligono_cuartel": "c00018",
        "poligono_vuelo": "FIC-C-ALVARADO-X",
        "fuente": "data/shapefiles/predios_g_vasquez/predios_gv.shp",
        "plot_id": "24",
        "wetland_id": "c_alvarado"
      },
      "geometry": {
        "type": "Polygon",
        "coordinates": [
          [
            [
              -70.54286325899994,
              -32.82800533999995
            ],
            [
              -70.54304088199996,
              -32.82851087699993
            ],
            [
              -70.54314580499994,
              -32.82878340399998
            ],
            [
              -70.54474748999996,
              -32.82828932099994
            ],
            [
              -70.54484670399995,
              -32.82779607499998
            ],
            [
              -70.54499201399994,
              -32.82731920699996
            ],
            [
              -70.54286325899994,
              -32.82800533999995
            ]
          ]
        ]
      }
    },
    {
      "type": "Feature",
      "properties": {
        "id_cuartel": "c00019",
        "nom_cuartel": "2",
        "cultivo": "Uva de mesa",
        "nom_predio": "Hacienda Rinconada",
        "propietario": "Ricardo Porfiri",
        "superficie": "4.18653",
        "asesor": "Ricardo Porfiri",
        "area_indap": "Independiente",
        "comuna": "Olmué",
        "provincia": "Marga Marga",
        "poligono_cuartel": "c00019",
        "poligono_vuelo": "FIC-B-PORFIRI-X",
        "fuente": "data/shapefiles/predios_r_porfiri/FIC-R-PORFIRI.kmz",
        "plot_id": "24",
        "wetland_id": "r_porfiri"
      },
      "geometry": {
        "type": "Polygon",
        "coordinates": [
          [
            [
              -70.71816086299998,
              -32.81827384899998
            ],
            [
              -70.71628631399994,
              -32.81799467999997
            ],
            [
              -70.71522540499996,
              -32.81971087499994
            ],
            [
              -70.71763846499994,
              -32.82007933699998
            ],
            [
              -70.71816086299998,
              -32.81827384899998
            ]
          ]
        ]
      }
    },
    {
      "type": "Feature",
      "properties": {
        "id_cuartel": "c00020",
        "nom_cuartel": "3",
        "cultivo": "Uva de mesa",
        "nom_predio": "Hacienda Rinconada",
        "propietario": "Ricardo Porfiri",
        "superficie": "2.94562",
        "asesor": "Ricardo Porfiri",
        "area_indap": "Independiente",
        "comuna": "Olmué",
        "provincia": "Marga Marga",
        "poligono_cuartel": "c00020",
        "poligono_vuelo": "FIC-B-PORFIRI-X",
        "fuente": "data/shapefiles/predios_r_porfiri/FIC-R-PORFIRI.kmz",
        "plot_id": "24",
        "wetland_id": "r_porfiri"
      },
      "geometry": {
        "type": "Polygon",
        "coordinates": [
          [
            [
              -70.71632668199999,
              -32.81992340099998
            ],
            [
              -70.71524821999998,
              -32.819776812999976
            ],
            [
              -70.71449688099995,
              -32.82243370899994
            ],
            [
              -70.71478850499994,
              -32.822405336999964
            ],
            [
              -70.71523797799995,
              -32.82235350199994
            ],
            [
              -70.71563780599996,
              -32.822362478999935
            ],
            [
              -70.71632668199999,
              -32.81992340099998
            ]
          ]
        ]
      }
    },
    {
      "type": "Feature",
      "properties": {
        "id_cuartel": "c00021",
        "nom_cuartel": "4",
        "cultivo": "Uva de mesa",
        "nom_predio": "Hacienda Rinconada",
        "propietario": "Ricardo Porfiri",
        "superficie": "3.02729",
        "asesor": "Ricardo Porfiri",
        "area_indap": "Independiente",
        "comuna": "Olmué",
        "provincia": "Marga Marga",
        "poligono_cuartel": "c00021",
        "poligono_vuelo": "FIC-B-PORFIRI-X",
        "fuente": "data/shapefiles/predios_r_porfiri/FIC-R-PORFIRI.kmz",
        "plot_id": "24",
        "wetland_id": "r_porfiri"
      },
      "geometry": {
        "type": "Polygon",
        "coordinates": [
          [
            [
              -70.71762600399995,
              -32.82011734699995
            ],
            [
              -70.71636658699998,
              -32.81993430499995
            ],
            [
              -70.71566335999995,
              -32.82236330899997
            ],
            [
              -70.71666384099996,
              -32.822385063999945
            ],
            [
              -70.71728147999994,
              -32.821295790999955
            ],
            [
              -70.71762600399995,
              -32.82011734699995
            ]
          ]
        ]
      }
    },
    {
      "type": "Feature",
      "properties": {
        "id_cuartel": "c00022",
        "nom_cuartel": "5",
        "cultivo": "Uva de mesa",
        "nom_predio": "Hacienda Rinconada",
        "propietario": "Ricardo Porfiri",
        "superficie": "1.19807",
        "asesor": "Ricardo Porfiri",
        "area_indap": "Independiente",
        "comuna": "Olmué",
        "provincia": "Marga Marga",
        "poligono_cuartel": "c00022",
        "poligono_vuelo": "FIC-B-PORFIRI-X",
        "fuente": "data/shapefiles/predios_r_porfiri/FIC-R-PORFIRI.kmz",
        "plot_id": "24",
        "wetland_id": "r_porfiri"
      },
      "geometry": {
        "type": "Polygon",
        "coordinates": [
          [
            [
              -70.71442636699999,
              -32.82273299599996
            ],
            [
              -70.71428222699996,
              -32.823281271999974
            ],
            [
              -70.71435903899999,
              -32.82336026699994
            ],
            [
              -70.71618896999996,
              -32.82319292999995
            ],
            [
              -70.71631133499994,
              -32.82300058799996
            ],
            [
              -70.71637585599996,
              -32.822852884999975
            ],
            [
              -70.71641452699998,
              -32.822700177999934
            ],
            [
              -70.71629229999996,
              -32.82263984999997
            ],
            [
              -70.71442636699999,
              -32.82273299599996
            ]
          ]
        ]
      }
    },
    {
      "type": "Feature",
      "properties": {
        "id_cuartel": "c00023",
        "nom_cuartel": "1",
        "cultivo": "Uva de mesa",
        "nom_predio": "Von Siebenthal",
        "propietario": "Viña Von Siebenthal",
        "superficie": "8.46543",
        "asesor": "Viña Von Siebenthal",
        "area_indap": "Independiente",
        "comuna": "Olmué",
        "provincia": "Marga Marga",
        "poligono_cuartel": "c00023",
        "poligono_vuelo": "FIC-V-SIEBENTHAL",
        "fuente": "data/shapefiles/predios_v_siebenthal/FIC-V-SIEBENTHAL.kmz",
        "plot_id": "24",
        "wetland_id": "v_siebenthal"
      },
      "geometry": {
        "type": "Polygon",
        "coordinates": [
          [
            [
              -70.83536158099997,
              -32.79788761299994
            ],
            [
              -70.83505683899995,
              -32.79804313799997
            ],
            [
              -70.83479632999996,
              -32.79838032699996
            ],
            [
              -70.83412990899996,
              -32.79817578299998
            ],
            [
              -70.83328775699994,
              -32.799807390999945
            ],
            [
              -70.83628099999999,
              -32.80108748599997
            ],
            [
              -70.83754508499999,
              -32.79862139099998
            ],
            [
              -70.83639647099994,
              -32.798143418999985
            ],
            [
              -70.83536158099997,
              -32.79788761299994
            ]
          ]
        ]
      }
    }
  ]
}
