{
"type": "FeatureCollection",
"name": "predio_RIV",
"crs": { "type": "name", "properties": { "name": "urn:ogc:def:crs:OGC:1.3:CRS84" } },
"features": [
{ "type": "Feature", "properties": { "Name": "Placemark", "FolderPath": "Document/Folder", "SymbolID": 0, "AltMode": 0, "Base": 0.0, "Clamped": -1, "Extruded": 0, "Snippet": null, "PopupInfo": null, "Shape_Leng": 0.0099555899966799997, "Shape_Area": 4.87583726215e-06 }, "geometry": { "type": "Polygon", "coordinates": [ [ [ -71.260669679999978, -32.993871018999982, 0.0 ], [ -71.259295269999939, -32.99448147499993, 0.0 ], [ -71.258574498999963, -32.994635569999957, 0.0 ], [ -71.25751807599994, -32.994783736999977, 0.0 ], [ -71.25838724099998, -32.996523209999964, 0.0 ], [ -71.259009080999988, -32.996105383999975, 0.0 ], [ -71.259758116999933, -32.995752748999962, 0.0 ], [ -71.260599015999958, -32.99540011299996, 0.0 ], [ -71.261372783999946, -32.995032658999946, 0.0 ], [ -71.260669679999978, -32.993871018999982, 0.0 ] ] ] } }
]
}
