{
"type": "FeatureCollection",
"name": "aoi",
"crs": { "type": "name", "properties": { "name": "urn:ogc:def:crs:OGC:1.3:CRS84" } },
"features": [
{ "type": "Feature", "properties": { "wetland_id": "lote_demo", "nombre": "Lote demostración", "fuente": "data/shapefiles/predios_gv/predios_gv.shp" }, "geometry": { "type": "Polygon", "coordinates": [ [ [ -70.591723, -32.735446 ], [ -70.590977, -32.735658 ], [ -70.591315, -32.736901 ], [ -70.592081, -32.736699 ], [ -70.591723, -32.735446 ] ] ] } },
{ "type": "Feature", "properties": { "wetland_id": "g1", "nombre": "Campo temporal G1", "fuente": "data/shapefiles/predios_gv/predios_gv.shp" }, "geometry": { "type": "Polygon", "coordinates": [ [ [ -70.591723, -32.735446 ], [ -70.590977, -32.735658 ], [ -70.591315, -32.736901 ], [ -70.592081, -32.736699 ], [ -70.591723, -32.735446 ] ] ] } },
{ "type": "Feature", "properties": { "wetland_id": "g2", "nombre": "Parcela demostración G2", "fuente": "data/shapefiles/predios_gv/predios_gv.shp" }, "geometry": { "type": "Polygon", "coordinates": [ [ [ -70.58852, -32.741213 ], [ -70.588211, -32.741192 ], [ -70.588165, -32.741405 ], [ -70.588127, -32.741633 ], [ -70.588113, -32.741639 ], [ -70.588106, -32.741674 ], [ -70.587618, -32.74191 ], [ -70.587903, -32.742437 ], [ -70.588615, -32.742499 ], [ -70.58852, -32.741213 ] ] ] } },
{ "type": "Feature", "properties": { "wetland_id": "g3", "nombre": "Lote pendiente alta resolución G3", "fuente": "data/shapefiles/predios_gv/predios_gv.shp" }, "geometry": { "type": "Polygon", "coordinates": [ [ [ -70.603418, -32.744447 ], [ -70.603408, -32.744437 ], [ -70.600923, -32.744101 ], [ -70.600794, -32.744967 ], [ -70.603251, -32.745246 ], [ -70.603418, -32.744447 ] ] ] } },
{ "type": "Feature", "properties": { "wetland_id": "g4", "nombre": "Predio temporal G4", "fuente": "data/shapefiles/predios_gv/predios_gv.shp" }, "geometry": { "type": "Polygon", "coordinates": [ [ [ -70.61518, -32.748567 ], [ -70.615173, -32.748599 ], [ -70.616808, -32.748409 ], [ -70.616795, -32.748326 ], [ -70.616719, -32.747846 ], [ -70.616542, -32.746997 ], [ -70.616485, -32.747012 ], [ -70.615498, -32.747347 ], [ -70.615214, -32.748562 ], [ -70.61518, -32.748567 ] ] ] } },
{ "type": "Feature", "properties": { "wetland_id": "g5", "nombre": "Predio temporal G5", "fuente": "data/shapefiles/predios_gv/predios_gv.shp" }, "geometry": { "type": "Polygon", "coordinates": [ [ [ -70.582335, -32.750719 ], [ -70.582446, -32.751064 ], [ -70.582465, -32.751059 ], [ -70.582456, -32.751036 ], [ -70.582595, -32.751013 ], [ -70.5827, -32.75129 ], [ -70.582708, -32.751308 ], [ -70.583433, -32.751142 ], [ -70.583048, -32.750133 ], [ -70.582199, -32.750296 ], [ -70.582335, -32.750719 ] ] ] } },
{ "type": "Feature", "properties": { "wetland_id": "g6", "nombre": "Predio temporal G6", "fuente": "data/shapefiles/predios_gv/predios_gv.shp" }, "geometry": { "type": "Polygon", "coordinates": [ [ [ -70.674345098142695, -32.747303125125306 ], [ -70.671731376877602, -32.74784880849819 ], [ -70.672206215331499, -32.749813728559793 ], [ -70.673879147728414, -32.749371410209903 ], [ -70.675053285709197, -32.748956318847711 ], [ -70.674345098142695, -32.747303125125306 ] ] ] } },
{ "type": "Feature", "properties": { "wetland_id": "nog", "nombre": "Predio NOG (sin G numérico)", "fuente": "data/shapefiles/predios_gv/predios_gv.shp" }, "geometry": { "type": "Polygon", "coordinates": [ [ [ -70.542849416191999, -32.827976606275406 ], [ -70.543040882481293, -32.828510877277999 ], [ -70.543122208954401, -32.828935464919205 ], [ -70.544853462682894, -32.828432065456688 ], [ -70.544909625980111, -32.827864239506397 ], [ -70.545046022299402, -32.827248466229399 ], [ -70.542849416191999, -32.827976606275406 ] ] ] } },
{ "type": "Feature", "properties": { "wetland_id": "rci", "nombre": "Predio RCI — Alejandra Brito", "fuente": "data/shapefiles/predios_ab/predio_RCI.geojson" }, "geometry": { "type": "Polygon", "coordinates": [ [ [ -71.208021073999987, -32.763658343999964 ], [ -71.205524769999954, -32.762169384999936 ], [ -71.204312784999956, -32.763567766999984 ], [ -71.204810886999951, -32.763883324999938 ], [ -71.20545496699998, -32.764017056999933 ], [ -71.205977811999958, -32.764270906999968 ], [ -71.206639679999967, -32.764325651999968 ], [ -71.20714727099994, -32.764083550999942 ], [ -71.207654497999954, -32.764182922999964 ], [ -71.208021073999987, -32.763658343999964 ] ] ] } },
{ "type": "Feature", "properties": { "wetland_id": "rpa", "nombre": "Predio RPA — Alejandra Brito", "fuente": "data/shapefiles/predios_ab/predio_RPA.geojson" }, "geometry": { "type": "Polygon", "coordinates": [ [ [ -71.216419837999979, -32.76890878599994 ], [ -71.214979816999971, -32.769363250999959 ], [ -71.215356143999941, -32.769988162999937 ], [ -71.215500521999957, -32.770342409999955 ], [ -71.215772433999973, -32.770505054999944 ], [ -71.215595767999957, -32.770763816999931 ], [ -71.215601360999983, -32.771316755999976 ], [ -71.216536143999974, -32.771298534999971 ], [ -71.216415154999936, -32.770822034999981 ], [ -71.216443255999934, -32.770420353999953 ], [ -71.216433888999973, -32.769964195999933 ], [ -71.216563463999933, -32.769646523999938 ], [ -71.216872570999953, -32.769149010999968 ], [ -71.216419837999979, -32.76890878599994 ] ] ] } },
{ "type": "Feature", "properties": { "wetland_id": "riv", "nombre": "Predio RIV — Bruno Devoto", "fuente": "data/shapefiles/predios_bd/predio_RIV.geojson" }, "geometry": { "type": "Polygon", "coordinates": [ [ [ -71.260669679999978, -32.993871018999982 ], [ -71.259295269999939, -32.99448147499993 ], [ -71.258574498999963, -32.994635569999957 ], [ -71.25751807599994, -32.994783736999977 ], [ -71.25838724099998, -32.996523209999964 ], [ -71.259009080999988, -32.996105383999975 ], [ -71.259758116999933, -32.995752748999962 ], [ -71.260599015999958, -32.99540011299996 ], [ -71.261372783999946, -32.995032658999946 ], [ -71.260669679999978, -32.993871018999982 ] ] ] } }
]
}
