{
"type": "FeatureCollection",
"name": "wetlands_export_aoi",
"crs": { "type": "name", "properties": { "name": "urn:ogc:def:crs:OGC:1.3:CRS84" } },
"features": [
{ "type": "Feature", "properties": { "wetland_id": "l_martinez", "nombre": "Parcela 17 — Luisa Martinez", "fuente": "data/shapefiles/predios.geojson" }, "geometry": { "type": "Polygon", "coordinates": [ [ [ -70.582373109999935, -32.751065095999934 ], [ -70.582517177999989, -32.751031632999968 ], [ -70.58261450599997, -32.751273558999969 ], [ -70.583423178999965, -32.751132178999967 ], [ -70.583022310999979, -32.750097034999953 ], [ -70.582079431999944, -32.750300206999952 ], [ -70.582373109999935, -32.751065095999934 ] ] ] } },
{ "type": "Feature", "properties": { "wetland_id": "r_pani", "nombre": "Parcela 31 — Roxana Pani", "fuente": "data/shapefiles/predios.geojson" }, "geometry": { "type": "MultiPolygon", "coordinates": [ [ [ [ -70.600839554999936, -32.744108822999976 ], [ -70.600713162999966, -32.744896592999964 ], [ -70.600771474999988, -32.744913210999982 ], [ -70.600754937999966, -32.745027858999947 ], [ -70.603251, -32.745325038999965 ], [ -70.603408040999966, -32.744470593999949 ], [ -70.600839554999936, -32.744108822999976 ] ] ], [ [ [ -70.60338868599996, -32.744409906999977 ], [ -70.603549158999954, -32.744134343999974 ], [ -70.603480969999964, -32.743428791999975 ], [ -70.601551290999964, -32.743201119999981 ], [ -70.601472094999963, -32.743662348999976 ], [ -70.600926769999944, -32.743576499999961 ], [ -70.600849026999981, -32.744061519999946 ], [ -70.60338868599996, -32.744409906999977 ] ] ] ] } },
{ "type": "Feature", "properties": { "wetland_id": "d_mondaca", "nombre": "Parcela 8 — Domingo Mondaca", "fuente": "data/shapefiles/predios.geojson" }, "geometry": { "type": "MultiPolygon", "coordinates": [ [ [ [ -70.589208304999943, -32.741248365999979 ], [ -70.589322996999954, -32.742591321999953 ], [ -70.589983835999988, -32.742604460999928 ], [ -70.589838635999968, -32.741284438999969 ], [ -70.589208304999943, -32.741248365999979 ] ] ], [ [ [ -70.588525015035728, -32.741207811473416 ], [ -70.588187834999985, -32.741189561999931 ], [ -70.588165, -32.741405 ], [ -70.588095512999985, -32.741645534999975 ], [ -70.587555995999935, -32.741894977999948 ], [ -70.587853060999976, -32.742420613999968 ], [ -70.588634506999938, -32.742524603999982 ], [ -70.58863447542052, -32.742524219398547 ], [ -70.589322169999946, -32.742588812999941 ], [ -70.589207375999933, -32.741247979999969 ], [ -70.588524922999966, -32.741206670999929 ], [ -70.588525015035728, -32.741207811473416 ] ] ] ] } },
{ "type": "Feature", "properties": { "wetland_id": "j_contreras", "nombre": "Parcela 14 — Juan Contreras", "fuente": "data/shapefiles/predios.geojson" }, "geometry": { "type": "Polygon", "coordinates": [ [ [ -70.615192037999975, -32.748634688999971 ], [ -70.616818586999955, -32.748388715999965 ], [ -70.616736365999941, -32.747605591999957 ], [ -70.61656512199994, -32.747019426999941 ], [ -70.615480966999939, -32.747347970999954 ], [ -70.615192037999975, -32.748634688999971 ] ] ] } },
{ "type": "Feature", "properties": { "wetland_id": "e_sazo", "nombre": "Parcela 24 — Emilio Sazo", "fuente": "data/shapefiles/predios.geojson" }, "geometry": { "type": "MultiPolygon", "coordinates": [ [ [ [ -70.590352390999954, -32.73586708299996 ], [ -70.59058461799998, -32.737113348999969 ], [ -70.591217870999969, -32.73691596499998 ], [ -70.590886393999938, -32.735724452999932 ], [ -70.590352390999954, -32.73586708299996 ] ] ], [ [ [ -70.59126809299994, -32.736912292999932 ], [ -70.592057545999978, -32.73669291899995 ], [ -70.591712575999964, -32.735406909999938 ], [ -70.590911850999987, -32.735641495999971 ], [ -70.59126809299994, -32.736912292999932 ] ] ], [ [ [ -70.591342668999971, -32.735498191999966 ], [ -70.591740013999981, -32.735387282999966 ], [ -70.592106301999934, -32.736693320999962 ], [ -70.592782495999984, -32.736494143999948 ], [ -70.592231258999959, -32.734734562999961 ], [ -70.591195648999985, -32.735011812999971 ], [ -70.591342668999971, -32.735498191999966 ] ] ] ] } },
{ "type": "Feature", "properties": { "wetland_id": "o_herrera", "nombre": "Nectarin — Oscar Herrera", "fuente": "data/shapefiles/predios.geojson" }, "geometry": { "type": "Polygon", "coordinates": [ [ [ -70.67425491299997, -32.747309385999984 ], [ -70.672169834999977, -32.747873609999942 ], [ -70.672533956999985, -32.749614342999962 ], [ -70.674976095999966, -32.748961556999973 ], [ -70.67425491299997, -32.747309385999984 ] ] ] } },
{ "type": "Feature", "properties": { "wetland_id": "a_brito_rci", "nombre": "El resguardo RCI — Alejandra Brito", "fuente": "data/shapefiles/predios_a_brito/predio_RCI.geojson" }, "geometry": { "type": "Polygon", "coordinates": [ [ [ -71.208021073999987, -32.763658343999964 ], [ -71.205524769999954, -32.762169384999936 ], [ -71.204312784999956, -32.763567766999984 ], [ -71.204810886999951, -32.763883324999938 ], [ -71.20545496699998, -32.764017056999933 ], [ -71.205977811999958, -32.764270906999968 ], [ -71.206639679999967, -32.764325651999968 ], [ -71.20714727099994, -32.764083550999942 ], [ -71.207654497999954, -32.764182922999964 ], [ -71.208021073999987, -32.763658343999964 ] ] ] } },
{ "type": "Feature", "properties": { "wetland_id": "a_brito_rpa", "nombre": "El resguardo RPA — Alejandra Brito", "fuente": "data/shapefiles/predios_a_brito/predio_RPA.geojson" }, "geometry": { "type": "Polygon", "coordinates": [ [ [ -71.216419837999979, -32.76890878599994 ], [ -71.214979816999971, -32.769363250999959 ], [ -71.215356143999941, -32.769988162999937 ], [ -71.215500521999957, -32.770342409999955 ], [ -71.215772433999973, -32.770505054999944 ], [ -71.215595767999957, -32.770763816999931 ], [ -71.215601360999983, -32.771316755999976 ], [ -71.216536143999974, -32.771298534999971 ], [ -71.216415154999936, -32.770822034999981 ], [ -71.216443255999934, -32.770420353999953 ], [ -71.216433888999973, -32.769964195999933 ], [ -71.216563463999933, -32.769646523999938 ], [ -71.216872570999953, -32.769149010999968 ], [ -71.216419837999979, -32.76890878599994 ] ] ] } },
{ "type": "Feature", "properties": { "wetland_id": "b_devoto", "nombre": "Agr. Rivarola — Bruno Devoto", "fuente": "data/shapefiles/predios_b_devoto/predio_RIV.geojson" }, "geometry": { "type": "Polygon", "coordinates": [ [ [ -71.260669679999978, -32.993871018999982 ], [ -71.259295269999939, -32.99448147499993 ], [ -71.258574498999963, -32.994635569999957 ], [ -71.25751807599994, -32.994783736999977 ], [ -71.25838724099998, -32.996523209999964 ], [ -71.259009080999988, -32.996105383999975 ], [ -71.259758116999933, -32.995752748999962 ], [ -71.260599015999958, -32.99540011299996 ], [ -71.261372783999946, -32.995032658999946 ], [ -71.260669679999978, -32.993871018999982 ] ] ] } },
{ "type": "Feature", "properties": { "wetland_id": "c_alvarado", "nombre": "Nogales — Claudio Alvarado", "fuente": "data/shapefiles/predios.geojson" }, "geometry": { "type": "Polygon", "coordinates": [ [ [ -70.542863258999944, -32.828005339999947 ], [ -70.543040881999957, -32.828510876999928 ], [ -70.543145804999938, -32.828783403999978 ], [ -70.544747489999963, -32.828289320999943 ], [ -70.544846703999951, -32.827796074999981 ], [ -70.544992013999945, -32.82731920699996 ], [ -70.542863258999944, -32.828005339999947 ] ] ] } },
{ "type": "Feature", "properties": { "wetland_id": "r_porfiri", "nombre": "Hacienda Rinconada — Ricardo Porfiri", "fuente": "data/shapefiles/predios.geojson" }, "geometry": { "type": "MultiPolygon", "coordinates": [ [ [ [ -70.714359038999987, -32.823360266999941 ], [ -70.716188969999962, -32.823192929999948 ], [ -70.716311334999943, -32.823000587999957 ], [ -70.716375855999956, -32.822852884999975 ], [ -70.716414526999984, -32.822700177999934 ], [ -70.716292299999964, -32.822639849999973 ], [ -70.714426366999987, -32.822732995999957 ], [ -70.714282226999956, -32.823281271999974 ], [ -70.714359038999987, -32.823360266999941 ] ] ], [ [ [ -70.715663359999951, -32.822363308999968 ], [ -70.716663840999956, -32.822385063999945 ], [ -70.71728147999994, -32.821295790999955 ], [ -70.717626003999953, -32.82011734699995 ], [ -70.716366586999982, -32.819934304999947 ], [ -70.715663359999951, -32.822363308999968 ] ] ], [ [ [ -70.714496880999945, -32.822433708999938 ], [ -70.714788504999945, -32.822405336999964 ], [ -70.715237977999948, -32.822353501999942 ], [ -70.715637805999961, -32.822362478999935 ], [ -70.716326681999988, -32.819923400999983 ], [ -70.715248219999978, -32.819776812999976 ], [ -70.714496880999945, -32.822433708999938 ] ] ], [ [ [ -70.715225404999956, -32.819710874999942 ], [ -70.717638464999936, -32.820079336999981 ], [ -70.71816086299998, -32.818273848999979 ], [ -70.716286313999944, -32.81799467999997 ], [ -70.715225404999956, -32.819710874999942 ] ] ] ] } },
{ "type": "Feature", "properties": { "wetland_id": "v_siebenthal", "nombre": "Von Siebenthal — Viña Von Siebenthal", "fuente": "data/shapefiles/predios.geojson" }, "geometry": { "type": "Polygon", "coordinates": [ [ [ -70.835361580999972, -32.797887612999943 ], [ -70.835056838999947, -32.798043137999969 ], [ -70.834796329999961, -32.798380326999961 ], [ -70.834129908999955, -32.798175782999976 ], [ -70.833287756999937, -32.799807390999945 ], [ -70.836281, -32.801087485999972 ], [ -70.837545084999988, -32.798621390999983 ], [ -70.836396470999944, -32.798143418999985 ], [ -70.835361580999972, -32.797887612999943 ] ] ] } }
]
}
