{
"type": "FeatureCollection",
"name": "predio_RCI",
"crs": { "type": "name", "properties": { "name": "urn:ogc:def:crs:OGC:1.3:CRS84" } },
"features": [
{ "type": "Feature", "properties": { "Name": "El Resguardo Citrico" }, "geometry": { "type": "Polygon", "coordinates": [ [ [ -71.208021073999987, -32.763658343999964, 0.0 ], [ -71.205524769999954, -32.762169384999936, 0.0 ], [ -71.204312784999956, -32.763567766999984, 0.0 ], [ -71.204810886999951, -32.763883324999938, 0.0 ], [ -71.20545496699998, -32.764017056999933, 0.0 ], [ -71.205977811999958, -32.764270906999968, 0.0 ], [ -71.206639679999967, -32.764325651999968, 0.0 ], [ -71.20714727099994, -32.764083550999942, 0.0 ], [ -71.207654497999954, -32.764182922999964, 0.0 ], [ -71.208021073999987, -32.763658343999964, 0.0 ] ] ] } }
]
}
