{
"type": "FeatureCollection",
"name": "predio_RPA",
"crs": { "type": "name", "properties": { "name": "urn:ogc:def:crs:OGC:1.3:CRS84" } },
"features": [
{ "type": "Feature", "properties": { "Name": "Resguardo Palto RPA", "codigo_predio": "RPA" }, "geometry": { "type": "Polygon", "coordinates": [ [ [ -71.216419837999979, -32.76890878599994, 0.0 ], [ -71.214979816999971, -32.769363250999959, 0.0 ], [ -71.215356143999941, -32.769988162999937, 0.0 ], [ -71.215500521999957, -32.770342409999955, 0.0 ], [ -71.215772433999973, -32.770505054999944, 0.0 ], [ -71.215595767999957, -32.770763816999931, 0.0 ], [ -71.215601360999983, -32.771316755999976, 0.0 ], [ -71.216536143999974, -32.771298534999971, 0.0 ], [ -71.216415154999936, -32.770822034999981, 0.0 ], [ -71.216443255999934, -32.770420353999953, 0.0 ], [ -71.216433888999973, -32.769964195999933, 0.0 ], [ -71.216563463999933, -32.769646523999938, 0.0 ], [ -71.216872570999953, -32.769149010999968, 0.0 ], [ -71.216419837999979, -32.76890878599994, 0.0 ] ] ] } }
]
}
