{
"type": "FeatureCollection",
"name": "predios_aoi",
"crs": { "type": "name", "properties": { "name": "urn:ogc:def:crs:OGC:1.3:CRS84" } },
"features": [
{ "type": "Feature", "properties": { "predio_id": "l_martinez", "nombre": "Parcela 17 — Luisa Martinez" }, "geometry": { "type": "Polygon", "coordinates": [ [ [ -70.582373109999935, -32.751065095999934 ], [ -70.582517177999989, -32.751031632999968 ], [ -70.58261450599997, -32.751273558999969 ], [ -70.583423178999965, -32.751132178999967 ], [ -70.583022310999979, -32.750097034999953 ], [ -70.582079431999944, -32.750300206999952 ], [ -70.582373109999935, -32.751065095999934 ] ] ] } },
{ "type": "Feature", "properties": { "predio_id": "r_pani", "nombre": "Parcela 31 — Roxana Pani" }, "geometry": { "type": "MultiPolygon", "coordinates": [ [ [ [ -70.600713162999966, -32.744896592999964 ], [ -70.600771474999988, -32.744913210999982 ], [ -70.600754937999966, -32.745027858999947 ], [ -70.603251, -32.745325038999965 ], [ -70.603408040999966, -32.744470593999949 ], [ -70.600839554999936, -32.744108822999976 ], [ -70.600713162999966, -32.744896592999964 ] ] ], [ [ [ -70.60338868599996, -32.744409906999977 ], [ -70.603549158999954, -32.744134343999974 ], [ -70.603480969999964, -32.743428791999975 ], [ -70.601551290999964, -32.743201119999981 ], [ -70.601472094999963, -32.743662348999976 ], [ -70.600926769999944, -32.743576499999961 ], [ -70.600849026999981, -32.744061519999946 ], [ -70.60338868599996, -32.744409906999977 ] ] ] ] } },
{ "type": "Feature", "properties": { "predio_id": "d_mondaca", "nombre": "Parcela 8 — Domingo Mondaca" }, "geometry": { "type": "MultiPolygon", "coordinates": [ [ [ [ -70.589208304999943, -32.741248365999979 ], [ -70.589322996999954, -32.742591321999953 ], [ -70.589983835999988, -32.742604460999928 ], [ -70.589838635999968, -32.741284438999969 ], [ -70.589208304999943, -32.741248365999979 ] ] ], [ [ [ -70.588525014997515, -32.741207810999846 ], [ -70.588187834999985, -32.741189561999931 ], [ -70.588165, -32.741405 ], [ -70.588095512999985, -32.741645534999975 ], [ -70.587555995999935, -32.741894977999948 ], [ -70.587853060999976, -32.742420613999968 ], [ -70.588634506999938, -32.742524603999982 ], [ -70.58863447503002, -32.742524219361869 ], [ -70.589322169999946, -32.742588812999941 ], [ -70.589207375999933, -32.741247979999969 ], [ -70.588524922999966, -32.741206670999929 ], [ -70.588525014997515, -32.741207810999846 ] ] ] ] } },
{ "type": "Feature", "properties": { "predio_id": "j_contreras", "nombre": "Parcela 14 — Juan Contreras" }, "geometry": { "type": "Polygon", "coordinates": [ [ [ -70.616649620667104, -32.746939839045801 ], [ -70.615405841861403, -32.747244617424002 ], [ -70.615066875345207, -32.748647494205102 ], [ -70.615423797526702, -32.749432413920502 ], [ -70.616775421015205, -32.7492454117425 ], [ -70.616894118576994, -32.748386672740999 ], [ -70.616649620667104, -32.746939839045801 ] ] ] } },
{ "type": "Feature", "properties": { "predio_id": "e_sazo", "nombre": "Parcela 24 — Emilio Sazo" }, "geometry": { "type": "MultiPolygon", "coordinates": [ [ [ [ -70.590352390999954, -32.73586708299996 ], [ -70.59058461799998, -32.737113348999969 ], [ -70.591217870999969, -32.73691596499998 ], [ -70.590886393999938, -32.735724452999932 ], [ -70.590352390999954, -32.73586708299996 ] ] ], [ [ [ -70.59126809299994, -32.736912292999932 ], [ -70.592057545999978, -32.73669291899995 ], [ -70.591712575999964, -32.735406909999938 ], [ -70.590911850999987, -32.735641495999971 ], [ -70.59126809299994, -32.736912292999932 ] ] ], [ [ [ -70.591342668999971, -32.735498191999966 ], [ -70.591740013999981, -32.735387282999966 ], [ -70.592106301999934, -32.736693320999962 ], [ -70.592782495999984, -32.736494143999948 ], [ -70.592231258999959, -32.734734562999961 ], [ -70.591195648999985, -32.735011812999971 ], [ -70.591342668999971, -32.735498191999966 ] ] ] ] } },
{ "type": "Feature", "properties": { "predio_id": "o_herrera", "nombre": "Nectarin — Oscar Herrera" }, "geometry": { "type": "Polygon", "coordinates": [ [ [ -70.67425491299997, -32.747309385999984 ], [ -70.672169834999977, -32.747873609999942 ], [ -70.672533956999985, -32.749614342999962 ], [ -70.674976095999966, -32.748961556999973 ], [ -70.67425491299997, -32.747309385999984 ] ] ] } },
{ "type": "Feature", "properties": { "predio_id": "a_brito_rpa", "nombre": "El resguardo RPA — Alejandra Brito" }, "geometry": { "type": "MultiPolygon", "coordinates": [ [ [ [ -71.21634805399998, -32.769105975999935 ], [ -71.21626015399994, -32.769229512999971 ], [ -71.216237608999961, -32.769328059999964 ], [ -71.21606604599998, -32.769513613999948 ], [ -71.215926483999965, -32.769729416999951 ], [ -71.215760739999951, -32.770247779999977 ], [ -71.215765335999947, -32.770395444999963 ], [ -71.21585444699997, -32.770471350999969 ], [ -71.215800898999987, -32.770554922999963 ], [ -71.215706526999952, -32.770639893999942 ], [ -71.215673239999944, -32.77096966199997 ], [ -71.215590133999967, -32.771331724999982 ], [ -71.216049659999953, -32.771335956999962 ], [ -71.216190623999978, -32.771158831999969 ], [ -71.216275088999964, -32.771100192999938 ], [ -71.216454973999987, -32.77107915199997 ], [ -71.216412435999985, -32.770851364999942 ], [ -71.216417060999959, -32.770487712999966 ], [ -71.216433888999973, -32.769964195999933 ], [ -71.216574690999948, -32.769541742999934 ], [ -71.216834250999966, -32.76919192899993 ], [ -71.21653734299997, -32.769070176999946 ], [ -71.21634805399998, -32.769105975999935 ] ] ], [ [ [ -71.216266430999951, -32.76899926699997 ], [ -71.215905304999978, -32.769168162999961 ], [ -71.21578627699995, -32.769205701999965 ], [ -71.215552774999935, -32.769254198999931 ], [ -71.21519849799995, -32.76938948399993 ], [ -71.215094800999964, -32.76943354399998 ], [ -71.215222950999987, -32.76967439799995 ], [ -71.215381031999982, -32.76994672099994 ], [ -71.215403573999936, -32.770062681999946 ], [ -71.21541052699996, -32.770135418999928 ], [ -71.215409643999976, -32.770261590999951 ], [ -71.215462465999963, -32.770331375999945 ], [ -71.215629129999968, -32.770399457999929 ], [ -71.215688869999951, -32.77035108299998 ], [ -71.215929304999975, -32.769682966999937 ], [ -71.216361792999976, -32.76905069299994 ], [ -71.216266430999951, -32.76899926699997 ] ] ] ] } },
{ "type": "Feature", "properties": { "predio_id": "a_brito_rci", "nombre": "El resguardo RCI — Alejandra Brito" }, "geometry": { "type": "Polygon", "coordinates": [ [ [ -71.205555192999952, -32.762161139999932 ], [ -71.204339795999942, -32.763594595999962 ], [ -71.204410208999946, -32.76366934899994 ], [ -71.204704250999953, -32.763799640999935 ], [ -71.204992665999953, -32.763905142999931 ], [ -71.205361425999968, -32.763990798999941 ], [ -71.20551807399994, -32.764045220999947 ], [ -71.205641688999947, -32.764108577999934 ], [ -71.205820190999987, -32.764234252999984 ], [ -71.20596685199996, -32.764295498999957 ], [ -71.206340677999947, -32.764355421999937 ], [ -71.206841452999981, -32.76428375699993 ], [ -71.207246217999966, -32.764100465999945 ], [ -71.207315237999978, -32.764073228999962 ], [ -71.20739810699996, -32.764085331999979 ], [ -71.207658842999933, -32.764179342999967 ], [ -71.208102960999952, -32.763663403999942 ], [ -71.205555192999952, -32.762161139999932 ] ] ] } },
{ "type": "Feature", "properties": { "predio_id": "b_devoto", "nombre": "Agr. Rivarola — Bruno Devoto" }, "geometry": { "type": "MultiPolygon", "coordinates": [ [ [ [ -71.260600095999962, -32.995192101999976 ], [ -71.260533390999967, -32.995085306999954 ], [ -71.260437754999941, -32.995080452999957 ], [ -71.260278778999975, -32.995124433999933 ], [ -71.260223953999969, -32.995127338999964 ], [ -71.26013772999994, -32.995157172999939 ], [ -71.260098748999951, -32.995176853999965 ], [ -71.260031327999968, -32.995225901999959 ], [ -71.259855720999951, -32.995313548999945 ], [ -71.259732939999935, -32.995383905999972 ], [ -71.259655281999983, -32.995451942999978 ], [ -71.259539109999935, -32.995532585999968 ], [ -71.259389714999941, -32.995610805999945 ], [ -71.259265837999976, -32.995678307999981 ], [ -71.259203949999971, -32.995723655999939 ], [ -71.258936739999967, -32.995871105999981 ], [ -71.258762205999972, -32.996029930999953 ], [ -71.258836912999982, -32.996190967999951 ], [ -71.259187400999963, -32.996019743999966 ], [ -71.25968662799994, -32.995776578999937 ], [ -71.259881098999983, -32.995674837999957 ], [ -71.260108116999959, -32.995558692999964 ], [ -71.260386709999977, -32.995437704999972 ], [ -71.260547689999953, -32.995385448999969 ], [ -71.260867385999973, -32.995267282999976 ], [ -71.260781332999954, -32.995107495999946 ], [ -71.260600095999962, -32.995192101999976 ] ] ], [ [ [ -71.258564978999971, -32.996257368999977 ], [ -71.258650528999965, -32.996123069999953 ], [ -71.25876802099998, -32.995996919999982 ], [ -71.25885477199995, -32.995912635999957 ], [ -71.258974294999973, -32.995837525999946 ], [ -71.259613739999963, -32.995468380999966 ], [ -71.259751561999963, -32.995356876999949 ], [ -71.260113625999963, -32.995161005999933 ], [ -71.26027406999998, -32.995098544999962 ], [ -71.260471609999968, -32.995063026999958 ], [ -71.260676491999959, -32.995061225999962 ], [ -71.260586819999958, -32.994874122999931 ], [ -71.260923727999966, -32.994726174999983 ], [ -71.260771254999952, -32.994445712999948 ], [ -71.260603040999968, -32.994509402999938 ], [ -71.260549770999944, -32.994414383999981 ], [ -71.25815202299998, -32.995418130999951 ], [ -71.258564978999971, -32.996257368999977 ] ] ], [ [ [ -71.257641727999953, -32.994837318999942 ], [ -71.257957784999974, -32.995474018999971 ], [ -71.260876888999974, -32.994227633999969 ], [ -71.260669679999978, -32.993871018999982 ], [ -71.259410177999939, -32.994407599999931 ], [ -71.259013013999947, -32.994513129999973 ], [ -71.258165623999957, -32.994749 ], [ -71.257641727999953, -32.994837318999942 ] ] ] ] } },
{ "type": "Feature", "properties": { "predio_id": "c_alvarado", "nombre": "Nogales — Claudio Alvarado" }, "geometry": { "type": "MultiPolygon", "coordinates": [ [ [ [ -70.541635948999954, -32.828542527999957 ], [ -70.541972356999963, -32.829265617999965 ], [ -70.543060490999949, -32.82890692899997 ], [ -70.543081986999937, -32.82886416499997 ], [ -70.543080349999968, -32.828770864999967 ], [ -70.542863138999962, -32.828145841999969 ], [ -70.541635948999954, -32.828542527999957 ] ] ], [ [ [ -70.543097750999948, -32.828707450999957 ], [ -70.543177177999951, -32.828703942999937 ], [ -70.543239727999946, -32.828723084999979 ], [ -70.54325023499996, -32.828759856999966 ], [ -70.543399569999963, -32.828745392999963 ], [ -70.544784408999988, -32.828283726999985 ], [ -70.544927528999949, -32.827838664999945 ], [ -70.545040906999986, -32.827330307999944 ], [ -70.542894564999983, -32.82804972699995 ], [ -70.543097750999948, -32.828707450999957 ] ] ] ] } },
{ "type": "Feature", "properties": { "predio_id": "r_porfiri", "nombre": "Hacienda Rinconada — Ricardo Porfiri" }, "geometry": { "type": "MultiPolygon", "coordinates": [ [ [ [ -70.714359038999987, -32.823360266999941 ], [ -70.716188969999962, -32.823192929999948 ], [ -70.716311334999943, -32.823000587999957 ], [ -70.716375855999956, -32.822852884999975 ], [ -70.716414526999984, -32.822700177999934 ], [ -70.716292299999964, -32.822639849999973 ], [ -70.714426366999987, -32.822732995999957 ], [ -70.714282226999956, -32.823281271999974 ], [ -70.714359038999987, -32.823360266999941 ] ] ], [ [ [ -70.715663359999951, -32.822363308999968 ], [ -70.716663840999956, -32.822385063999945 ], [ -70.71728147999994, -32.821295790999955 ], [ -70.717626003999953, -32.82011734699995 ], [ -70.716366586999982, -32.819934304999947 ], [ -70.715663359999951, -32.822363308999968 ] ] ], [ [ [ -70.714496880999945, -32.822433708999938 ], [ -70.714788504999945, -32.822405336999964 ], [ -70.715237977999948, -32.822353501999942 ], [ -70.715637805999961, -32.822362478999935 ], [ -70.716326681999988, -32.819923400999983 ], [ -70.715248219999978, -32.819776812999976 ], [ -70.714496880999945, -32.822433708999938 ] ] ], [ [ [ -70.715225404999956, -32.819710874999942 ], [ -70.717638464999936, -32.820079336999981 ], [ -70.71816086299998, -32.818273848999979 ], [ -70.716286313999944, -32.81799467999997 ], [ -70.715225404999956, -32.819710874999942 ] ] ] ] } },
{ "type": "Feature", "properties": { "predio_id": "v_siebenthal", "nombre": "Von Siebenthal — Viña Von Siebenthal" }, "geometry": { "type": "Polygon", "coordinates": [ [ [ -70.835361581488002, -32.797887612833101 ], [ -70.835056838928594, -32.798043137946301 ], [ -70.834796330084998, -32.7983803274536 ], [ -70.834129909289899, -32.798175783276001 ], [ -70.833287756826607, -32.799807390595397 ], [ -70.836280999683098, -32.801087486191498 ], [ -70.837545084932501, -32.798621390979598 ], [ -70.836396471127998, -32.798143418644898 ], [ -70.835361581488002, -32.797887612833101 ] ] ] } },
{ "type": "Feature", "properties": { "predio_id": "v_siebenthal2", "nombre": "Von Siebenthal 2 — Viña Von Siebenthal" }, "geometry": { "type": "Polygon", "coordinates": [ [ [ -70.847221990160605, -32.806142412884697 ], [ -70.844356709878596, -32.806643729469798 ], [ -70.8434079510033, -32.810764742688498 ], [ -70.844030711012707, -32.810732797719297 ], [ -70.846363867927096, -32.8097396994647 ], [ -70.847221990160605, -32.806142412884697 ] ] ] } },
{ "type": "Feature", "properties": { "predio_id": "v_siebenthal3", "nombre": "Von Siebenthal 3 — Viña Von Siebenthal" }, "geometry": { "type": "Polygon", "coordinates": [ [ [ -70.841707232575004, -32.807660470580501 ], [ -70.840903522999398, -32.810502657370598 ], [ -70.839164462049993, -32.8101095903057 ], [ -70.839569781091001, -32.808729056131902 ], [ -70.839596106978902, -32.807258820661801 ], [ -70.841707232575004, -32.807660470580501 ] ] ] } },
{ "type": "Feature", "properties": { "predio_id": "a_inguerzon", "nombre": "Alfalfa — Anita Inguerzon" }, "geometry": { "type": "Polygon", "coordinates": [ [ [ -70.680424186815202, -32.8576968321942 ], [ -70.682529995757605, -32.858194321090402 ], [ -70.682835688949396, -32.856026281172802 ], [ -70.677691986371201, -32.855504107088102 ], [ -70.678241096456105, -32.856237030381003 ], [ -70.680579485366493, -32.856463429934102 ], [ -70.680424186815202, -32.8576968321942 ] ] ] } },
{ "type": "Feature", "properties": { "predio_id": "v_fernandez", "nombre": "Trinidad — Vicente Fernandez" }, "geometry": { "type": "MultiPolygon", "coordinates": [ [ [ [ -70.670609347999971, -32.844968141999971 ], [ -70.670608104999985, -32.84648315499993 ], [ -70.673329576999947, -32.845422009999936 ], [ -70.673334614999987, -32.84526262199995 ], [ -70.67344492999996, -32.845252732999938 ], [ -70.673433794999937, -32.84495603199997 ], [ -70.670609347999971, -32.844968141999971 ] ] ], [ [ [ -70.676690818999987, -32.843937349999976 ], [ -70.67657810299994, -32.843916104999948 ], [ -70.673568344999978, -32.84392691499994 ], [ -70.673602003999974, -32.845286431999966 ], [ -70.67677036799995, -32.845232109999984 ], [ -70.676832050999963, -32.845173904999967 ], [ -70.676814554999964, -32.844114156999979 ], [ -70.676742840999964, -32.843997760999969 ], [ -70.676690818999987, -32.843937349999976 ] ] ], [ [ [ -70.670609300999956, -32.84496571699998 ], [ -70.673433921999958, -32.844953780999958 ], [ -70.673422584999969, -32.843978770999968 ], [ -70.67060453299996, -32.844015763999948 ], [ -70.670609300999956, -32.84496571699998 ] ] ] ] } },
{ "type": "Feature", "properties": { "predio_id": "r_salazar", "nombre": "Palto — Rodrigo Salazar" }, "geometry": { "type": "MultiPolygon", "coordinates": [ [ [ [ -71.290672467999968, -32.864076652999984 ], [ -71.290703174999976, -32.864185511999949 ], [ -71.290739527999961, -32.864293740999983 ], [ -71.290772613999934, -32.864373434999948 ], [ -71.290822777999949, -32.86451207999994 ], [ -71.290942419999965, -32.864512894999962 ], [ -71.291139404999967, -32.864530890999959 ], [ -71.291150105999975, -32.864505951999945 ], [ -71.29114403899996, -32.864471909999963 ], [ -71.291145719999975, -32.864431248999949 ], [ -71.291151140999943, -32.86432191199998 ], [ -71.29114728199994, -32.86428326999993 ], [ -71.291148308999936, -32.864237063999951 ], [ -71.291159350999976, -32.864221495999971 ], [ -71.291214556999932, -32.864201633999983 ], [ -71.291287777999969, -32.864177627999936 ], [ -71.29135447799996, -32.864145807999932 ], [ -71.29141739399995, -32.86412544999996 ], [ -71.291465131999985, -32.864100832999952 ], [ -71.29154848099995, -32.864065112999981 ], [ -71.291565120999962, -32.864044430999968 ], [ -71.291544083999952, -32.864008818999935 ], [ -71.291497249999964, -32.863986681999961 ], [ -71.29142399899996, -32.863982151999949 ], [ -71.291336851999972, -32.863974783999936 ], [ -71.29123001399995, -32.863950919999979 ], [ -71.291133842999955, -32.863941509999961 ], [ -71.290983714999982, -32.863938213999973 ], [ -71.290811309999981, -32.863942006999935 ], [ -71.290752673999975, -32.863937567999983 ], [ -71.290670422999938, -32.863934316999973 ], [ -71.290645241999982, -32.863941463999936 ], [ -71.29063789199995, -32.863956851999944 ], [ -71.290641954999955, -32.863978032999967 ], [ -71.290672467999968, -32.864076652999984 ] ] ], [ [ [ -71.292231453999989, -32.86440715599997 ], [ -71.292282710999984, -32.864419065999982 ], [ -71.292316202999984, -32.864399987999946 ], [ -71.292331446999981, -32.864352972999939 ], [ -71.292336493999983, -32.864225319999946 ], [ -71.292360965999933, -32.864103144999945 ], [ -71.29239238699995, -32.864014381999937 ], [ -71.292441466999946, -32.863933340999949 ], [ -71.292479695999987, -32.863874539999983 ], [ -71.292557386999988, -32.863769588999958 ], [ -71.292606516999967, -32.863714983999955 ], [ -71.292655380999975, -32.863664102999962 ], [ -71.292697518999944, -32.863648071999933 ], [ -71.292753431999984, -32.863616486999945 ], [ -71.292847595999945, -32.863574741999969 ], [ -71.292908463999936, -32.86355830499997 ], [ -71.292981560999976, -32.863531785999953 ], [ -71.293045847999963, -32.863526035999939 ], [ -71.293247818999987, -32.863475694999977 ], [ -71.293371246999982, -32.863451332999944 ], [ -71.293516178999937, -32.863428688999932 ], [ -71.293692577999934, -32.86339372499998 ], [ -71.293864478999978, -32.863344817999973 ], [ -71.294054634999952, -32.863274384999954 ], [ -71.294143081999948, -32.863239362999934 ], [ -71.294213644999957, -32.863210568999932 ], [ -71.294271791999961, -32.86319378099995 ], [ -71.294317090999982, -32.863174274999949 ], [ -71.294451178999964, -32.863135281999973 ], [ -71.294495677999976, -32.863112718999957 ], [ -71.294495736999977, -32.86308867799994 ], [ -71.294373665999956, -32.862868879999951 ], [ -71.294301562999976, -32.862813360999951 ], [ -71.29410739399998, -32.862834206999935 ], [ -71.293896064999956, -32.862860526999953 ], [ -71.293860147999965, -32.862852870999973 ], [ -71.293788297999981, -32.862870507999958 ], [ -71.293680681999945, -32.862879651999947 ], [ -71.293585350999933, -32.862882399999933 ], [ -71.293474495999988, -32.862885811999945 ], [ -71.293365972999936, -32.862895075999973 ], [ -71.293243754999935, -32.862930498999958 ], [ -71.293185997999956, -32.862967124999955 ], [ -71.293117992999953, -32.863021687999947 ], [ -71.292918312999973, -32.863098950999984 ], [ -71.292757419999987, -32.863144940999973 ], [ -71.292729290999944, -32.863148756999976 ], [ -71.292702708999968, -32.863173383999936 ], [ -71.292576550999968, -32.863230440999928 ], [ -71.292430672999956, -32.863302834999956 ], [ -71.292363042999966, -32.86333366599996 ], [ -71.292332527999974, -32.863337779999938 ], [ -71.292301184999985, -32.863365258999977 ], [ -71.292241483999987, -32.863417933999983 ], [ -71.292176164999944, -32.863496748999978 ], [ -71.292117357999985, -32.863605872999983 ], [ -71.292071721999946, -32.863730953999948 ], [ -71.29202836199994, -32.863809241999945 ], [ -71.292005772999971, -32.863861378999957 ], [ -71.291986985999984, -32.863900457999932 ], [ -71.291960919999951, -32.863971665999941 ], [ -71.291948619999971, -32.864017008999951 ], [ -71.29200157799994, -32.864071499999966 ], [ -71.292031215999941, -32.864107431999969 ], [ -71.292051329999936, -32.86417400299996 ], [ -71.292117834999942, -32.864288403999979 ], [ -71.292142591999948, -32.864327575999937 ], [ -71.292167525999957, -32.864368785999943 ], [ -71.292231453999989, -32.86440715599997 ] ] ], [ [ [ -71.291983496999933, -32.863876564999941 ], [ -71.292035491999968, -32.863784850999934 ], [ -71.292065622999985, -32.86369874199994 ], [ -71.292150076999974, -32.863511251999967 ], [ -71.292266444999939, -32.863364536999939 ], [ -71.292341915999941, -32.863326149999978 ], [ -71.292431508999982, -32.863271588999964 ], [ -71.292443446999982, -32.863264318999938 ], [ -71.292568264999943, -32.863218579999966 ], [ -71.292701272999977, -32.863140614999963 ], [ -71.292694880999989, -32.863109299999962 ], [ -71.292660237999939, -32.863084034999929 ], [ -71.292569964999984, -32.863055643999928 ], [ -71.292426341999942, -32.863033848999976 ], [ -71.292299440999955, -32.863020811999945 ], [ -71.292192908999937, -32.863008909999962 ], [ -71.29203113899996, -32.862986403999969 ], [ -71.291981357999987, -32.862999081999931 ], [ -71.29188167999996, -32.863109615999974 ], [ -71.291816838999978, -32.86317844499996 ], [ -71.291769306999981, -32.86320657899995 ], [ -71.291709760999936, -32.863316719999943 ], [ -71.29168156999998, -32.863389284999982 ], [ -71.291667072999985, -32.863443417999974 ], [ -71.291671047999955, -32.863483111999983 ], [ -71.291572568999982, -32.863635614999964 ], [ -71.291503927999941, -32.863689868999984 ], [ -71.291502426999955, -32.863748777999945 ], [ -71.291574664999985, -32.863800247999961 ], [ -71.291662783999982, -32.863856262999946 ], [ -71.291765905999966, -32.863912146999951 ], [ -71.291834937999965, -32.86395233099995 ], [ -71.291881855999975, -32.863985821999961 ], [ -71.291931788999989, -32.863992669999959 ], [ -71.291957818999947, -32.863960640999949 ], [ -71.291983496999933, -32.863876564999941 ] ] ], [ [ [ -71.292702889999987, -32.863669480999931 ], [ -71.292628165999986, -32.863733099999934 ], [ -71.292606087999957, -32.863765859999944 ], [ -71.292615696999974, -32.863779653999984 ], [ -71.292709266999964, -32.863764922999962 ], [ -71.292829495999968, -32.863755760999936 ], [ -71.292940887999976, -32.863754188999962 ], [ -71.293055632999938, -32.86375805299997 ], [ -71.29320013399996, -32.863773735999985 ], [ -71.293337302999987, -32.863756273999968 ], [ -71.293470406999973, -32.863750832999983 ], [ -71.293563328999937, -32.863749449999943 ], [ -71.293729025999937, -32.863728474999959 ], [ -71.293864940999981, -32.863704746999929 ], [ -71.293914045999941, -32.863689062999981 ], [ -71.293926471999953, -32.863674003999961 ], [ -71.293968277999966, -32.863659100999939 ], [ -71.294045086999972, -32.863637915999959 ], [ -71.294162720999964, -32.863615415999959 ], [ -71.294310592999977, -32.863598846999935 ], [ -71.294451663999951, -32.863568655999984 ], [ -71.294567063999978, -32.863556116999973 ], [ -71.294652866999968, -32.863555713999972 ], [ -71.29472287699997, -32.863563559999932 ], [ -71.29477800799998, -32.863557852999975 ], [ -71.294789432999949, -32.863530042999969 ], [ -71.294760932999964, -32.863464758999953 ], [ -71.294714374999955, -32.863368500999968 ], [ -71.294598132999965, -32.863150466999969 ], [ -71.294545686999982, -32.863140475999955 ], [ -71.294474861999959, -32.863146760999939 ], [ -71.294357318999971, -32.863184032999982 ], [ -71.294328080999946, -32.863202816999944 ], [ -71.294211161999954, -32.863246473999936 ], [ -71.294132536999939, -32.86327317699994 ], [ -71.294052121999982, -32.863307017999944 ], [ -71.293985522999947, -32.863338531999943 ], [ -71.293844346999947, -32.863375042999962 ], [ -71.293661130999965, -32.863422641999932 ], [ -71.293278704999977, -32.863490590999959 ], [ -71.293111482999961, -32.863529623999966 ], [ -71.293045738999979, -32.863545742999975 ], [ -71.292950608999945, -32.863561957999934 ], [ -71.292859340999939, -32.86359045599994 ], [ -71.292778238999972, -32.863626570999941 ], [ -71.292702889999987, -32.863669480999931 ] ] ], [ [ [ -71.291619669999989, -32.863555613999949 ], [ -71.291650956999945, -32.863499922999949 ], [ -71.291663838999966, -32.863480807999963 ], [ -71.291662365999969, -32.863446459999977 ], [ -71.291685295999969, -32.863356951999947 ], [ -71.291701882999973, -32.863293397999939 ], [ -71.291728955999986, -32.863245481999968 ], [ -71.291763063999952, -32.863199230999953 ], [ -71.291806035999969, -32.863163345999965 ], [ -71.291858545999958, -32.863110612999947 ], [ -71.291877314999965, -32.863089597999931 ], [ -71.291902624999977, -32.863060480999934 ], [ -71.291941196999971, -32.86301941499994 ], [ -71.291961857999979, -32.86296466899995 ], [ -71.291938736999953, -32.862930854999945 ], [ -71.291821870999968, -32.86284154699996 ], [ -71.291774089999933, -32.86280759899995 ], [ -71.29171336099995, -32.862780920999967 ], [ -71.291618761999985, -32.862742124999954 ], [ -71.291518891999942, -32.862721438999984 ], [ -71.291422517999933, -32.862686705999977 ], [ -71.29136062699996, -32.862668301999975 ], [ -71.291290916999969, -32.862651057999983 ], [ -71.291233743999953, -32.862627520999979 ], [ -71.291169585999967, -32.862609328999952 ], [ -71.291117328999974, -32.862622549999969 ], [ -71.291085691999967, -32.862664763999931 ], [ -71.291067856999973, -32.862729421999973 ], [ -71.291092416999959, -32.862779901999943 ], [ -71.291119727999956, -32.86284014499995 ], [ -71.291182004999939, -32.862884649999955 ], [ -71.291259836999984, -32.862932545999968 ], [ -71.29128609199995, -32.862955666999937 ], [ -71.291304184999944, -32.863043696999966 ], [ -71.291299364999986, -32.863090531999944 ], [ -71.291267947999984, -32.863148819999935 ], [ -71.291228351999962, -32.863227368999958 ], [ -71.291199383999981, -32.863317812999981 ], [ -71.291198512999983, -32.863404315999958 ], [ -71.291237495999951, -32.863475777999952 ], [ -71.291270271999963, -32.863540929999942 ], [ -71.291333162999933, -32.863626048999947 ], [ -71.291410790999976, -32.86369635799997 ], [ -71.291462684999942, -32.863720266999962 ], [ -71.291499490999968, -32.863680905999956 ], [ -71.291544286999965, -32.863644933999979 ], [ -71.291582526999946, -32.863607993999949 ], [ -71.291619669999989, -32.863555613999949 ] ] ] ] } }
]
}
