{
  "type": "FeatureCollection",
  "name": "vuelos",
  "features": [
    {
      "type": "Feature",
      "properties": {
        "poligono_vuelo": "FIC-A-INGUERZON",
        "fuente": "data/vectors/kml/FIC-A-INGUERZON.kmz"
      },
      "geometry": {
        "type": "Polygon",
        "coordinates": [
          [
            [
              -70.6804241868152,
              -32.8576968321942
            ],
            [
              -70.6825299957576,
              -32.8581943210904
            ],
            [
              -70.6828356889494,
              -32.8560262811728
            ],
            [
              -70.6776919863712,
              -32.8555041070881
            ],
            [
              -70.6782410964561,
              -32.856237030381
            ],
            [
              -70.6805794853665,
              -32.8564634299341
            ],
            [
              -70.6804241868152,
              -32.8576968321942
            ]
          ]
        ]
      }
    },
    {
      "type": "Feature",
      "properties": {
        "poligono_vuelo": "FIC-C-ALVARADO",
        "fuente": "data/vectors/kml/FIC-C-ALVARADO.kmz"
      },
      "geometry": {
        "type": "Polygon",
        "coordinates": [
          [
            [
              -70.5414279467895,
              -32.8283968269395
            ],
            [
              -70.5417934303304,
              -32.8293771071433
            ],
            [
              -70.5448534626829,
              -32.8284320654567
            ],
            [
              -70.5449096259801,
              -32.8278642395064
            ],
            [
              -70.5450460222994,
              -32.8272484662294
            ],
            [
              -70.5414279467895,
              -32.8283968269395
            ]
          ]
        ]
      }
    },
    {
      "type": "Feature",
      "properties": {
        "poligono_vuelo": "FIC-J-CONTRERAS",
        "fuente": "data/vectors/kml/FIC-J-CONTRERAS.kmz"
      },
      "geometry": {
        "type": "Polygon",
        "coordinates": [
          [
            [
              -70.6166496206671,
              -32.7469398390458
            ],
            [
              -70.6154058418614,
              -32.747244617424
            ],
            [
              -70.6150668753452,
              -32.7486474942051
            ],
            [
              -70.6154237975267,
              -32.7494324139205
            ],
            [
              -70.6167754210152,
              -32.7492454117425
            ],
            [
              -70.616894118577,
              -32.748386672741
            ],
            [
              -70.6166496206671,
              -32.7469398390458
            ]
          ]
        ]
      }
    },
    {
      "type": "Feature",
      "properties": {
        "poligono_vuelo": "FIC-R-PORFIRI",
        "fuente": "data/vectors/kml/FIC-R-PORFIRI.kmz"
      },
      "geometry": {
        "type": "Polygon",
        "coordinates": [
          [
            [
              -70.7182812058756,
              -32.8182517859954
            ],
            [
              -70.7162520914065,
              -32.8179741205179
            ],
            [
              -70.7152442085231,
              -32.8197046070684
            ],
            [
              -70.7140985382913,
              -32.823429949402
            ],
            [
              -70.7162479572523,
              -32.8232562710331
            ],
            [
              -70.7173436571274,
              -32.8215404879747
            ],
            [
              -70.7182812058756,
              -32.8182517859954
            ]
          ]
        ]
      }
    },
    {
      "type": "Feature",
      "properties": {
        "poligono_vuelo": "FIC-R-SALAZAR",
        "fuente": "data/vectors/kml/FIC-R-SALAZAR.kmz"
      },
      "geometry": {
        "type": "MultiPolygon",
        "coordinates": [
          [
            [
              [
                -71.29067246799997,
                -32.864076652999984
              ],
              [
                -71.29070317499998,
                -32.86418551199995
              ],
              [
                -71.29073952799996,
                -32.86429374099998
              ],
              [
                -71.29077261399993,
                -32.86437343499995
              ],
              [
                -71.29082277799995,
                -32.86451207999994
              ],
              [
                -71.29094241999996,
                -32.86451289499996
              ],
              [
                -71.29113940499997,
                -32.86453089099996
              ],
              [
                -71.29115010599998,
                -32.864505951999945
              ],
              [
                -71.29114403899996,
                -32.86447190999996
              ],
              [
                -71.29114571999997,
                -32.86443124899995
              ],
              [
                -71.29115114099994,
                -32.86432191199998
              ],
              [
                -71.29114728199994,
                -32.86428326999993
              ],
              [
                -71.29114830899994,
                -32.86423706399995
              ],
              [
                -71.29115935099998,
                -32.86422149599997
              ],
              [
                -71.29121455699993,
                -32.86420163399998
              ],
              [
                -71.29128777799997,
                -32.864177627999936
              ],
              [
                -71.29135447799996,
                -32.86414580799993
              ],
              [
                -71.29141739399995,
                -32.86412544999996
              ],
              [
                -71.29146513199998,
                -32.86410083299995
              ],
              [
                -71.29154848099995,
                -32.86406511299998
              ],
              [
                -71.29156512099996,
                -32.86404443099997
              ],
              [
                -71.29154408399995,
                -32.864008818999935
              ],
              [
                -71.29149724999996,
                -32.86398668199996
              ],
              [
                -71.29142399899996,
                -32.86398215199995
              ],
              [
                -71.29133685199997,
                -32.863974783999936
              ],
              [
                -71.29123001399995,
                -32.86395091999998
              ],
              [
                -71.29113384299995,
                -32.86394150999996
              ],
              [
                -71.29098371499998,
                -32.86393821399997
              ],
              [
                -71.29081130999998,
                -32.863942006999935
              ],
              [
                -71.29075267399998,
                -32.86393756799998
              ],
              [
                -71.29067042299994,
                -32.86393431699997
              ],
              [
                -71.29064524199998,
                -32.863941463999936
              ],
              [
                -71.29063789199995,
                -32.863956851999944
              ],
              [
                -71.29064195499996,
                -32.86397803299997
              ],
              [
                -71.29067246799997,
                -32.864076652999984
              ]
            ]
          ],
          [
            [
              [
                -71.29223145399999,
                -32.86440715599997
              ],
              [
                -71.29228271099998,
                -32.86441906599998
              ],
              [
                -71.29231620299998,
                -32.864399987999946
              ],
              [
                -71.29233144699998,
                -32.86435297299994
              ],
              [
                -71.29233649399998,
                -32.864225319999946
              ],
              [
                -71.29236096599993,
                -32.864103144999945
              ],
              [
                -71.29239238699995,
                -32.86401438199994
              ],
              [
                -71.29244146699995,
                -32.86393334099995
              ],
              [
                -71.29247969599999,
                -32.86387453999998
              ],
              [
                -71.29255738699999,
                -32.86376958899996
              ],
              [
                -71.29260651699997,
                -32.863714983999955
              ],
              [
                -71.29265538099997,
                -32.86366410299996
              ],
              [
                -71.29269751899994,
                -32.86364807199993
              ],
              [
                -71.29275343199998,
                -32.863616486999945
              ],
              [
                -71.29284759599994,
                -32.86357474199997
              ],
              [
                -71.29290846399994,
                -32.86355830499997
              ],
              [
                -71.29298156099998,
                -32.86353178599995
              ],
              [
                -71.29304584799996,
                -32.86352603599994
              ],
              [
                -71.29324781899999,
                -32.86347569499998
              ],
              [
                -71.29337124699998,
                -32.863451332999944
              ],
              [
                -71.29351617899994,
                -32.86342868899993
              ],
              [
                -71.29369257799993,
                -32.86339372499998
              ],
              [
                -71.29386447899998,
                -32.86334481799997
              ],
              [
                -71.29405463499995,
                -32.863274384999954
              ],
              [
                -71.29414308199995,
                -32.863239362999934
              ],
              [
                -71.29421364499996,
                -32.86321056899993
              ],
              [
                -71.29427179199996,
                -32.86319378099995
              ],
              [
                -71.29431709099998,
                -32.86317427499995
              ],
              [
                -71.29445117899996,
                -32.86313528199997
              ],
              [
                -71.29449567799998,
                -32.86311271899996
              ],
              [
                -71.29449573699998,
                -32.86308867799994
              ],
              [
                -71.29437366599996,
                -32.86286887999995
              ],
              [
                -71.29430156299998,
                -32.86281336099995
              ],
              [
                -71.29410739399998,
                -32.862834206999935
              ],
              [
                -71.29389606499996,
                -32.86286052699995
              ],
              [
                -71.29386014799996,
                -32.86285287099997
              ],
              [
                -71.29378829799998,
                -32.86287050799996
              ],
              [
                -71.29368068199994,
                -32.86287965199995
              ],
              [
                -71.29358535099993,
                -32.86288239999993
              ],
              [
                -71.29347449599999,
                -32.862885811999945
              ],
              [
                -71.29336597299994,
                -32.86289507599997
              ],
              [
                -71.29324375499993,
                -32.86293049899996
              ],
              [
                -71.29318599799996,
                -32.862967124999955
              ],
              [
                -71.29311799299995,
                -32.86302168799995
              ],
              [
                -71.29291831299997,
                -32.863098950999984
              ],
              [
                -71.29275741999999,
                -32.86314494099997
              ],
              [
                -71.29272929099994,
                -32.863148756999976
              ],
              [
                -71.29270270899997,
                -32.863173383999936
              ],
              [
                -71.29257655099997,
                -32.86323044099993
              ],
              [
                -71.29243067299996,
                -32.863302834999956
              ],
              [
                -71.29236304299997,
                -32.86333366599996
              ],
              [
                -71.29233252799997,
                -32.86333777999994
              ],
              [
                -71.29230118499999,
                -32.86336525899998
              ],
              [
                -71.29224148399999,
                -32.86341793399998
              ],
              [
                -71.29217616499994,
                -32.86349674899998
              ],
              [
                -71.29211735799998,
                -32.86360587299998
              ],
              [
                -71.29207172199995,
                -32.86373095399995
              ],
              [
                -71.29202836199994,
                -32.863809241999945
              ],
              [
                -71.29200577299997,
                -32.86386137899996
              ],
              [
                -71.29198698599998,
                -32.86390045799993
              ],
              [
                -71.29196091999995,
                -32.86397166599994
              ],
              [
                -71.29194861999997,
                -32.86401700899995
              ],
              [
                -71.29200157799994,
                -32.864071499999966
              ],
              [
                -71.29203121599994,
                -32.86410743199997
              ],
              [
                -71.29205132999994,
                -32.86417400299996
              ],
              [
                -71.29211783499994,
                -32.86428840399998
              ],
              [
                -71.29214259199995,
                -32.86432757599994
              ],
              [
                -71.29216752599996,
                -32.86436878599994
              ],
              [
                -71.29223145399999,
                -32.86440715599997
              ]
            ]
          ],
          [
            [
              [
                -71.29198349699993,
                -32.86387656499994
              ],
              [
                -71.29203549199997,
                -32.863784850999934
              ],
              [
                -71.29206562299998,
                -32.86369874199994
              ],
              [
                -71.29215007699997,
                -32.86351125199997
              ],
              [
                -71.29226644499994,
                -32.86336453699994
              ],
              [
                -71.29234191599994,
                -32.86332614999998
              ],
              [
                -71.29243150899998,
                -32.863271588999964
              ],
              [
                -71.29244344699998,
                -32.86326431899994
              ],
              [
                -71.29256826499994,
                -32.863218579999966
              ],
              [
                -71.29270127299998,
                -32.86314061499996
              ],
              [
                -71.29269488099999,
                -32.86310929999996
              ],
              [
                -71.29266023799994,
                -32.86308403499993
              ],
              [
                -71.29256996499998,
                -32.86305564399993
              ],
              [
                -71.29242634199994,
                -32.863033848999976
              ],
              [
                -71.29229944099995,
                -32.863020811999945
              ],
              [
                -71.29219290899994,
                -32.86300890999996
              ],
              [
                -71.29203113899996,
                -32.86298640399997
              ],
              [
                -71.29198135799999,
                -32.86299908199993
              ],
              [
                -71.29188167999996,
                -32.863109615999974
              ],
              [
                -71.29181683899998,
                -32.86317844499996
              ],
              [
                -71.29176930699998,
                -32.86320657899995
              ],
              [
                -71.29170976099994,
                -32.86331671999994
              ],
              [
                -71.29168156999998,
                -32.86338928499998
              ],
              [
                -71.29166707299999,
                -32.863443417999974
              ],
              [
                -71.29167104799996,
                -32.86348311199998
              ],
              [
                -71.29157256899998,
                -32.863635614999964
              ],
              [
                -71.29150392799994,
                -32.863689868999984
              ],
              [
                -71.29150242699995,
                -32.863748777999945
              ],
              [
                -71.29157466499998,
                -32.86380024799996
              ],
              [
                -71.29166278399998,
                -32.863856262999946
              ],
              [
                -71.29176590599997,
                -32.86391214699995
              ],
              [
                -71.29183493799997,
                -32.86395233099995
              ],
              [
                -71.29188185599997,
                -32.86398582199996
              ],
              [
                -71.29193178899999,
                -32.86399266999996
              ],
              [
                -71.29195781899995,
                -32.86396064099995
              ],
              [
                -71.29198349699993,
                -32.86387656499994
              ]
            ]
          ],
          [
            [
              [
                -71.29270288999999,
                -32.86366948099993
              ],
              [
                -71.29262816599999,
                -32.86373309999993
              ],
              [
                -71.29260608799996,
                -32.863765859999944
              ],
              [
                -71.29261569699997,
                -32.863779653999984
              ],
              [
                -71.29270926699996,
                -32.86376492299996
              ],
              [
                -71.29282949599997,
                -32.863755760999936
              ],
              [
                -71.29294088799998,
                -32.86375418899996
              ],
              [
                -71.29305563299994,
                -32.86375805299997
              ],
              [
                -71.29320013399996,
                -32.863773735999985
              ],
              [
                -71.29333730299999,
                -32.86375627399997
              ],
              [
                -71.29347040699997,
                -32.86375083299998
              ],
              [
                -71.29356332899994,
                -32.86374944999994
              ],
              [
                -71.29372902599994,
                -32.86372847499996
              ],
              [
                -71.29386494099998,
                -32.86370474699993
              ],
              [
                -71.29391404599994,
                -32.86368906299998
              ],
              [
                -71.29392647199995,
                -32.86367400399996
              ],
              [
                -71.29396827799997,
                -32.86365910099994
              ],
              [
                -71.29404508699997,
                -32.86363791599996
              ],
              [
                -71.29416272099996,
                -32.86361541599996
              ],
              [
                -71.29431059299998,
                -32.863598846999935
              ],
              [
                -71.29445166399995,
                -32.863568655999984
              ],
              [
                -71.29456706399998,
                -32.86355611699997
              ],
              [
                -71.29465286699997,
                -32.86355571399997
              ],
              [
                -71.29472287699997,
                -32.86356355999993
              ],
              [
                -71.29477800799998,
                -32.863557852999975
              ],
              [
                -71.29478943299995,
                -32.86353004299997
              ],
              [
                -71.29476093299996,
                -32.86346475899995
              ],
              [
                -71.29471437499996,
                -32.86336850099997
              ],
              [
                -71.29459813299997,
                -32.86315046699997
              ],
              [
                -71.29454568699998,
                -32.863140475999955
              ],
              [
                -71.29447486199996,
                -32.86314676099994
              ],
              [
                -71.29435731899997,
                -32.86318403299998
              ],
              [
                -71.29432808099995,
                -32.863202816999944
              ],
              [
                -71.29421116199995,
                -32.863246473999936
              ],
              [
                -71.29413253699994,
                -32.86327317699994
              ],
              [
                -71.29405212199998,
                -32.863307017999944
              ],
              [
                -71.29398552299995,
                -32.86333853199994
              ],
              [
                -71.29384434699995,
                -32.86337504299996
              ],
              [
                -71.29366113099996,
                -32.86342264199993
              ],
              [
                -71.29327870499998,
                -32.86349059099996
              ],
              [
                -71.29311148299996,
                -32.863529623999966
              ],
              [
                -71.29304573899998,
                -32.863545742999975
              ],
              [
                -71.29295060899994,
                -32.863561957999934
              ],
              [
                -71.29285934099994,
                -32.86359045599994
              ],
              [
                -71.29277823899997,
                -32.86362657099994
              ],
              [
                -71.29270288999999,
                -32.86366948099993
              ]
            ]
          ],
          [
            [
              [
                -71.29161966999999,
                -32.86355561399995
              ],
              [
                -71.29165095699994,
                -32.86349992299995
              ],
              [
                -71.29166383899997,
                -32.86348080799996
              ],
              [
                -71.29166236599997,
                -32.86344645999998
              ],
              [
                -71.29168529599997,
                -32.86335695199995
              ],
              [
                -71.29170188299997,
                -32.86329339799994
              ],
              [
                -71.29172895599999,
                -32.86324548199997
              ],
              [
                -71.29176306399995,
                -32.86319923099995
              ],
              [
                -71.29180603599997,
                -32.863163345999965
              ],
              [
                -71.29185854599996,
                -32.86311061299995
              ],
              [
                -71.29187731499997,
                -32.86308959799993
              ],
              [
                -71.29190262499998,
                -32.863060480999934
              ],
              [
                -71.29194119699997,
                -32.86301941499994
              ],
              [
                -71.29196185799998,
                -32.86296466899995
              ],
              [
                -71.29193873699995,
                -32.862930854999945
              ],
              [
                -71.29182187099997,
                -32.86284154699996
              ],
              [
                -71.29177408999993,
                -32.86280759899995
              ],
              [
                -71.29171336099995,
                -32.86278092099997
              ],
              [
                -71.29161876199998,
                -32.862742124999954
              ],
              [
                -71.29151889199994,
                -32.86272143899998
              ],
              [
                -71.29142251799993,
                -32.86268670599998
              ],
              [
                -71.29136062699996,
                -32.862668301999975
              ],
              [
                -71.29129091699997,
                -32.86265105799998
              ],
              [
                -71.29123374399995,
                -32.86262752099998
              ],
              [
                -71.29116958599997,
                -32.86260932899995
              ],
              [
                -71.29111732899997,
                -32.86262254999997
              ],
              [
                -71.29108569199997,
                -32.86266476399993
              ],
              [
                -71.29106785699997,
                -32.86272942199997
              ],
              [
                -71.29109241699996,
                -32.86277990199994
              ],
              [
                -71.29111972799996,
                -32.86284014499995
              ],
              [
                -71.29118200499994,
                -32.862884649999955
              ],
              [
                -71.29125983699998,
                -32.86293254599997
              ],
              [
                -71.29128609199995,
                -32.86295566699994
              ],
              [
                -71.29130418499994,
                -32.863043696999966
              ],
              [
                -71.29129936499999,
                -32.863090531999944
              ],
              [
                -71.29126794799998,
                -32.863148819999935
              ],
              [
                -71.29122835199996,
                -32.86322736899996
              ],
              [
                -71.29119938399998,
                -32.86331781299998
              ],
              [
                -71.29119851299998,
                -32.86340431599996
              ],
              [
                -71.29123749599995,
                -32.86347577799995
              ],
              [
                -71.29127027199996,
                -32.86354092999994
              ],
              [
                -71.29133316299993,
                -32.86362604899995
              ],
              [
                -71.29141079099998,
                -32.86369635799997
              ],
              [
                -71.29146268499994,
                -32.86372026699996
              ],
              [
                -71.29149949099997,
                -32.863680905999956
              ],
              [
                -71.29154428699997,
                -32.86364493399998
              ],
              [
                -71.29158252699995,
                -32.86360799399995
              ],
              [
                -71.29161966999999,
                -32.86355561399995
              ]
            ]
          ]
        ]
      }
    },
    {
      "type": "Feature",
      "properties": {
        "poligono_vuelo": "FIC-V-FERNANDEZ",
        "fuente": "data/vectors/kml/FIC-V-FERNANDEZ.kmz"
      },
      "geometry": {
        "type": "Polygon",
        "coordinates": [
          [
            [
              -70.6767968840685,
              -32.8438855322721
            ],
            [
              -70.6768169629462,
              -32.8453546370022
            ],
            [
              -70.6735172488325,
              -32.8454025776404
            ],
            [
              -70.6704982372075,
              -32.8465961620048
            ],
            [
              -70.6704211692669,
              -32.8439250587013
            ],
            [
              -70.6767968840685,
              -32.8438855322721
            ]
          ]
        ]
      }
    },
    {
      "type": "Feature",
      "properties": {
        "poligono_vuelo": "FIC-V-SIEBENTHAL",
        "fuente": "data/vectors/kml/FIC-V-SIEBENTHAL.kmz"
      },
      "geometry": {
        "type": "Polygon",
        "coordinates": [
          [
            [
              -70.835361581488,
              -32.7978876128331
            ],
            [
              -70.8350568389286,
              -32.7980431379463
            ],
            [
              -70.834796330085,
              -32.7983803274536
            ],
            [
              -70.8341299092899,
              -32.798175783276
            ],
            [
              -70.8332877568266,
              -32.7998073905954
            ],
            [
              -70.8362809996831,
              -32.8010874861915
            ],
            [
              -70.8375450849325,
              -32.7986213909796
            ],
            [
              -70.836396471128,
              -32.7981434186449
            ],
            [
              -70.835361581488,
              -32.7978876128331
            ]
          ]
        ]
      }
    },
    {
      "type": "Feature",
      "properties": {
        "poligono_vuelo": "FIC-V-SIEBENTHAL2",
        "fuente": "data/vectors/kml/FIC-V-SIEBENTHAL2.kmz"
      },
      "geometry": {
        "type": "Polygon",
        "coordinates": [
          [
            [
              -70.8472219901606,
              -32.8061424128847
            ],
            [
              -70.8443567098786,
              -32.8066437294698
            ],
            [
              -70.8434079510033,
              -32.8107647426885
            ],
            [
              -70.8440307110127,
              -32.8107327977193
            ],
            [
              -70.8463638679271,
              -32.8097396994647
            ],
            [
              -70.8472219901606,
              -32.8061424128847
            ]
          ]
        ]
      }
    },
    {
      "type": "Feature",
      "properties": {
        "poligono_vuelo": "FIC-V-SIEBENTHAL3",
        "fuente": "data/vectors/kml/FIC-V-SIEBENTHAL3.kmz"
      },
      "geometry": {
        "type": "Polygon",
        "coordinates": [
          [
            [
              -70.841707232575,
              -32.8076604705805
            ],
            [
              -70.8409035229994,
              -32.8105026573706
            ],
            [
              -70.83916446205,
              -32.8101095903057
            ],
            [
              -70.839569781091,
              -32.8087290561319
            ],
            [
              -70.8395961069789,
              -32.8072588206618
            ],
            [
              -70.841707232575,
              -32.8076604705805
            ]
          ]
        ]
      }
    },
    {
      "type": "Feature",
      "properties": {
        "poligono_vuelo": "RIVAROLA-60M",
        "fuente": "data/vectors/kml/Rivarola-60m.kmz"
      },
      "geometry": {
        "type": "Polygon",
        "coordinates": [
          [
            [
              -71.260669679622,
              -32.9938710192481
            ],
            [
              -71.2592952696844,
              -32.9944814747352
            ],
            [
              -71.2585744994094,
              -32.9946355695188
            ],
            [
              -71.2575180763346,
              -32.9947837374173
            ],
            [
              -71.258387240723,
              -32.9965232100434
            ],
            [
              -71.2590090813759,
              -32.9961053842196
            ],
            [
              -71.2597581172632,
              -32.9957527494512
            ],
            [
              -71.2605990156899,
              -32.9954001132826
            ],
            [
              -71.2613727837762,
              -32.9950326590151
            ],
            [
              -71.260669679622,
              -32.9938710192481
            ]
          ]
        ]
      }
    }
  ]
}
